{
  "type": "FeatureCollection",
  "crs": {
    "type": "name",
    "properties": {
      "name": "EPSG:4326"
    }
  },
  "features": [
    {
      "type": "Feature",
      "geometry": {
        "type": "MultiPolygon",
        "coordinates": [
          [
            [
              [
                72.70755672089041,
                31.14061275337838
              ],
              [
                72.15561322773972,
                31.44145785472973
              ],
              [
                71.18971211472603,
                31.269546368243244
              ],
              [
                70.66536579623288,
                31.04391254222973
              ],
              [
                70.38939404965754,
                31.11912381756757
              ],
              [
                70.43078981164383,
                31.344757643581083
              ],
              [
                70.66536579623288,
                31.55964700168919
              ],
              [
                70.87234460616439,
                31.538158065878378
              ],
              [
                70.89994178082192,
                31.41996891891892
              ],
              [
                71.05172624143836,
                31.505924662162162
              ],
              [
                71.2449064640411,
                31.624113809121624
              ],
              [
                71.36909375,
                31.753047423986487
              ],
              [
                71.46568386130137,
                31.91421444256757
              ],
              [
                71.68646125856165,
                31.946447846283785
              ],
              [
                71.82444713184931,
                32.03240358952703
              ],
              [
                71.97623159246575,
                32.01091465371622
              ],
              [
                72.03142594178082,
                31.924958910472974
              ],
              [
                72.15561322773972,
                31.83900316722973
              ],
              [
                72.14181464041096,
                31.710069552364864
              ],
              [
                72.23840475171234,
                31.613369341216217
              ],
              [
                72.48677932363015,
                31.5811359375
              ],
              [
                72.73515389554795,
                31.452202322635134
              ],
              [
                72.84554259417808,
                31.3769910472973
              ],
              [
                73.09391716609589,
                31.36624657939189
              ],
              [
                73.09391716609589,
                31.32326870777027
              ],
              [
                73.0525214041096,
                31.237312964527028
              ],
              [
                72.83174400684932,
                31.151357221283785
              ],
              [
                72.76275107020548,
                31.129868285472973
              ],
              [
                72.70755672089041,
                31.14061275337838
              ]
            ]
          ]
        ]
      },
      "properties": {
        "id": 5,
        "zone": "Barani lands",
        "code": null
      }
    },
    {
      "type": "Feature",
      "geometry": {
        "type": "MultiPolygon",
        "coordinates": [
          [
            [
              [
                70.73435873287671,
                31.054657010135134
              ],
              [
                70.72056014554795,
                31.065401478040542
              ],
              [
                70.74815732020548,
                31.02242360641892
              ],
              [
                70.72056014554795,
                30.732322972972973
              ],
              [
                70.70676155821918,
                30.57115595439189
              ],
              [
                70.72056014554795,
                30.409988935810812
              ],
              [
                70.72056014554795,
                30.281055320945946
              ],
              [
                70.67916438356164,
                30.13063277027027
              ],
              [
                70.65156720890411,
                29.96946575168919
              ],
              [
                70.63776862157535,
                29.829787668918918
              ],
              [
                70.51358133561644,
                29.66862065033784
              ],
              [
                70.14101947773973,
                29.49670916385135
              ],
              [
                69.92024208047945,
                29.442986824324326
              ],
              [
                69.60287457191781,
                29.432242356418918
              ],
              [
                69.34070141267124,
                29.389264484797298
              ],
              [
                69.07852825342466,
                29.281819805743243
              ],
              [
                68.95434096746575,
                29.217352998310812
              ],
              [
                68.85775085616439,
                29.27107533783784
              ],
              [
                68.84395226883562,
                29.367775548986486
              ],
              [
                68.87154944349315,
                29.464475760135137
              ],
              [
                68.89914661815068,
                29.561175971283784
              ],
              [
                68.92674379280822,
                29.690109586148647
              ],
              [
                68.96813955479452,
                29.77606532939189
              ],
              [
                68.94054238013699,
                29.87276554054054
              ],
              [
                68.84395226883562,
                29.947976815878377
              ],
              [
                68.92674379280822,
                29.947976815878377
              ],
              [
                68.98193814212328,
                29.980210219594596
              ],
              [
                69.1061254280822,
                30.033932559121624
              ],
              [
                69.28550706335616,
                29.9909546875
              ],
              [
                69.3958957619863,
                29.829787668918918
              ],
              [
                69.45109011130137,
                29.797554265202702
              ],
              [
                69.47868728595891,
                29.73308745777027
              ],
              [
                69.3958957619863,
                29.690109586148647
              ],
              [
                69.5200830479452,
                29.614898310810812
              ],
              [
                69.79605479452054,
                29.636387246621624
              ],
              [
                69.92024208047945,
                29.561175971283784
              ],
              [
                70.08582512842466,
                29.604153842905404
              ],
              [
                70.11342230308219,
                29.636387246621624
              ],
              [
                70.22381100171233,
                29.80829873310811
              ],
              [
                70.33419970034247,
                29.947976815878377
              ],
              [
                70.2790053510274,
                29.9909546875
              ],
              [
                70.2790053510274,
                30.076910430743244
              ],
              [
                70.49978274828767,
                30.356266596283785
              ],
              [
                70.49978274828767,
                30.485200211148648
              ],
              [
                70.34799828767123,
                30.893489991554056
              ],
              [
                70.4445883989726,
                31.129868285472973
              ],
              [
                70.73435873287671,
                31.054657010135134
              ]
            ]
          ]
        ]
      },
      "properties": {
        "id": 10,
        "zone": "Sulaiman piedmont",
        "code": null
      }
    },
    {
      "type": "Feature",
      "geometry": {
        "type": "MultiPolygon",
        "coordinates": [
          [
            [
              [
                69.31310423801371,
                27.928016849662164
              ],
              [
                69.25790988869863,
                27.960250253378376
              ],
              [
                69.34070141267124,
                27.852805574324325
              ],
              [
                69.45109011130137,
                27.713127491554054
              ],
              [
                69.5200830479452,
                27.573449408783784
              ],
              [
                69.61667315924657,
                27.46600472972973
              ],
              [
                69.57527739726028,
                27.390793454391893
              ],
              [
                69.47868728595891,
                27.28334877533784
              ],
              [
                69.24411130136987,
                27.2081375
              ],
              [
                68.98193814212328,
                27.2081375
              ],
              [
                68.78875791952055,
                27.380048986486486
              ],
              [
                68.76116074486302,
                27.551960472972972
              ],
              [
                68.63697345890411,
                27.70238302364865
              ],
              [
                68.66457063356165,
                27.713127491554054
              ],
              [
                68.84395226883562,
                27.74536089527027
              ],
              [
                69.05093107876712,
                27.82057217060811
              ],
              [
                69.17511836472603,
                27.949505785472972
              ],
              [
                69.29930565068493,
                27.928016849662164
              ],
              [
                69.31310423801371,
                27.928016849662164
              ]
            ]
          ]
        ]
      },
      "properties": {
        "id": 1,
        "zone": "Indus delta",
        "code": null
      }
    },
    {
      "type": "Feature",
      "geometry": {
        "type": "MultiPolygon",
        "coordinates": [
          [
            [
              [
                70.5273799229452,
                29.690109586148647
              ],
              [
                70.55497709760274,
                29.700854054054055
              ],
              [
                70.58257427226027,
                29.66862065033784
              ],
              [
                70.65156720890411,
                29.604153842905404
              ],
              [
                70.63776862157535,
                29.57192043918919
              ],
              [
                70.59637285958904,
                29.485964695945945
              ],
              [
                70.51358133561644,
                29.389264484797298
              ],
              [
                70.33419970034247,
                29.303308741554055
              ],
              [
                70.19621382705479,
                29.217352998310812
              ],
              [
                70.08582512842466,
                29.142141722972973
              ],
              [
                69.98923501712329,
                29.120652787162165
              ],
              [
                69.82365196917809,
                29.01320810810811
              ],
              [
                69.67186750856165,
                28.93799683277027
              ],
              [
                69.58907598458904,
                28.809063217905404
              ],
              [
                69.5200830479452,
                28.690874070945945
              ],
              [
                69.5200830479452,
                28.604918327702702
              ],
              [
                69.5200830479452,
                28.51896258445946
              ],
              [
                69.60287457191781,
                28.443751309121623
              ],
              [
                69.68566609589041,
                28.390028969594596
              ],
              [
                69.79605479452054,
                28.357795565878376
              ],
              [
                69.90644349315069,
                28.228861951013513
              ],
              [
                69.98923501712329,
                28.153650675675674
              ],
              [
                70.04442936643835,
                28.09992833614865
              ],
              [
                70.16861665239726,
                28.056950464527027
              ],
              [
                70.22381100171233,
                27.949505785472972
              ],
              [
                70.18241523972603,
                27.928016849662164
              ],
              [
                70.12722089041097,
                27.86355004222973
              ],
              [
                70.08582512842466,
                27.777594298986486
              ],
              [
                70.04442936643835,
                27.72387195945946
              ],
              [
                69.94783925513698,
                27.648660684121623
              ],
              [
                69.92024208047945,
                27.508982601351352
              ],
              [
                69.82365196917809,
                27.433771326013513
              ],
              [
                69.65806892123288,
                27.433771326013513
              ],
              [
                69.29930565068493,
                27.970994721283784
              ],
              [
                69.31310423801371,
                27.981739189189188
              ],
              [
                69.32690282534247,
                28.12141727195946
              ],
              [
                69.2717084760274,
                28.21811748310811
              ],
              [
                69.13372260273972,
                28.271839822635137
              ],
              [
                69.09232684075343,
                28.357795565878376
              ],
              [
                68.99573672945206,
                28.433006841216216
              ],
              [
                68.83015368150686,
                28.486729180743243
              ],
              [
                68.78875791952055,
                28.647896199324325
              ],
              [
                68.83015368150686,
                28.79831875
              ],
              [
                68.83015368150686,
                28.959485768581082
              ],
              [
                68.87154944349315,
                29.120652787162165
              ],
              [
                68.95434096746575,
                29.228097466216216
              ],
              [
                69.09232684075343,
                29.303308741554055
              ],
              [
                69.21651412671233,
                29.346286613175675
              ],
              [
                69.4372915239726,
                29.41075342060811
              ],
              [
                69.68566609589041,
                29.432242356418918
              ],
              [
                69.92024208047945,
                29.45373129222973
              ],
              [
                70.11342230308219,
                29.47522022804054
              ],
              [
                70.22381100171233,
                29.55043150337838
              ],
              [
                70.37559546232877,
                29.614898310810812
              ],
              [
                70.5273799229452,
                29.690109586148647
              ]
            ]
          ]
        ]
      },
      "properties": {
        "id": 2,
        "zone": "Southern irrigated plain",
        "code": null
      }
    },
    {
      "type": "Feature",
      "geometry": {
        "type": "MultiPolygon",
        "coordinates": [
          [
            [
              [
                71.99003017979452,
                29.937232347972973
              ],
              [
                71.97623159246575,
                29.937232347972973
              ],
              [
                71.99003017979452,
                29.937232347972973
              ],
              [
                71.96243300513699,
                29.894254476351353
              ],
              [
                71.96243300513699,
                29.797554265202702
              ],
              [
                71.86584289383562,
                29.722342989864867
              ],
              [
                71.79684995719178,
                29.690109586148647
              ],
              [
                71.68646125856165,
                29.679365118243243
              ],
              [
                71.60366973458905,
                29.604153842905404
              ],
              [
                71.54847538527397,
                29.51819809966216
              ],
              [
                71.4932810359589,
                29.389264484797298
              ],
              [
                71.43808668664384,
                29.389264484797298
              ],
              [
                71.31389940068493,
                29.27107533783784
              ],
              [
                71.27250363869864,
                29.206608530405404
              ],
              [
                71.0379276541096,
                29.185119594594596
              ],
              [
                70.89994178082192,
                29.142141722972973
              ],
              [
                70.83094884417808,
                29.099163851351353
              ],
              [
                70.73435873287671,
                29.088419383445945
              ],
              [
                70.70676155821918,
                29.163630658783784
              ],
              [
                70.69296297089042,
                29.217352998310812
              ],
              [
                70.6101714469178,
                29.228097466216216
              ],
              [
                70.47218557363014,
                29.228097466216216
              ],
              [
                70.38939404965754,
                29.142141722972973
              ],
              [
                70.3204011130137,
                29.045441511824325
              ],
              [
                70.2790053510274,
                28.948741300675675
              ],
              [
                70.14101947773973,
                28.884274493243243
              ],
              [
                70.01683219178082,
                28.744596410472973
              ],
              [
                70.03063077910959,
                28.61566279560811
              ],
              [
                70.12722089041097,
                28.529707052364866
              ],
              [
                70.33419970034247,
                28.443751309121623
              ],
              [
                70.34799828767123,
                28.357795565878376
              ],
              [
                70.33419970034247,
                28.196628547297298
              ],
              [
                70.5273799229452,
                28.056950464527027
              ],
              [
                70.66536579623288,
                28.056950464527027
              ],
              [
                70.69296297089042,
                27.938761317567568
              ],
              [
                70.76195590753424,
                27.842061106418917
              ],
              [
                70.81715025684932,
                27.756105363175674
              ],
              [
                70.83094884417808,
                27.691638555743243
              ],
              [
                70.91374036815068,
                27.62717174831081
              ],
              [
                70.88614319349315,
                27.541216005067568
              ],
              [
                70.85854601883563,
                27.455260261824325
              ],
              [
                70.77575449486301,
                27.455260261824325
              ],
              [
                70.66536579623288,
                27.498238133445945
              ],
              [
                70.5273799229452,
                27.48749366554054
              ],
              [
                70.34799828767123,
                27.455260261824325
              ],
              [
                70.25140817636986,
                27.36930451858108
              ],
              [
                70.19621382705479,
                27.4122823902027
              ],
              [
                70.01683219178082,
                27.444515793918917
              ],
              [
                69.85124914383562,
                27.46600472972973
              ],
              [
                69.89264490582192,
                27.541216005067568
              ],
              [
                69.93404066780822,
                27.6056828125
              ],
              [
                70.00303360445206,
                27.713127491554054
              ],
              [
                70.0720265410959,
                27.766849831081082
              ],
              [
                70.1548180650685,
                27.874294510135137
              ],
              [
                70.1548180650685,
                27.906527913851352
              ],
              [
                70.21001241438357,
                27.960250253378376
              ],
              [
                70.18241523972603,
                28.035461528716215
              ],
              [
                70.09962371575342,
                28.07843940033784
              ],
              [
                70.00303360445206,
                28.14290620777027
              ],
              [
                69.90644349315069,
                28.228861951013513
              ],
              [
                69.83745055650685,
                28.32556216216216
              ],
              [
                69.74086044520548,
                28.411517905405407
              ],
              [
                69.58907598458904,
                28.443751309121623
              ],
              [
                69.54768022260274,
                28.508218116554055
              ],
              [
                69.5200830479452,
                28.61566279560811
              ],
              [
                69.54768022260274,
                28.744596410472973
              ],
              [
                69.63047174657534,
                28.884274493243243
              ],
              [
                69.82365196917809,
                29.045441511824325
              ],
              [
                70.05822795376713,
                29.163630658783784
              ],
              [
                70.2790053510274,
                29.26033086993243
              ],
              [
                70.34799828767123,
                29.346286613175675
              ],
              [
                70.49978274828767,
                29.400008952702702
              ],
              [
                70.58257427226027,
                29.47522022804054
              ],
              [
                70.63776862157535,
                29.55043150337838
              ],
              [
                70.65156720890411,
                29.625642778716216
              ],
              [
                70.78955308219179,
                29.66862065033784
              ],
              [
                71.06552482876712,
                29.77606532939189
              ],
              [
                71.3276979880137,
                29.862021072635137
              ],
              [
                71.52087821061644,
                29.96946575168919
              ],
              [
                71.63126690924658,
                30.012443623310812
              ],
              [
                71.79684995719178,
                30.076910430743244
              ],
              [
                71.87964148116438,
                30.076910430743244
              ],
              [
                71.87964148116438,
                30.023188091216216
              ],
              [
                71.82444713184931,
                29.937232347972973
              ],
              [
                71.87964148116438,
                29.937232347972973
              ],
              [
                71.99003017979452,
                29.937232347972973
              ]
            ]
          ]
        ]
      },
      "properties": {
        "id": 3,
        "zone": "Sandy desert a",
        "code": null
      }
    },
    {
      "type": "Feature",
      "geometry": {
        "type": "MultiPolygon",
        "coordinates": [
          [
            [
              [
                72.72135530821917,
                31.151357221283785
              ],
              [
                72.74895248287672,
                31.097634881756758
              ],
              [
                72.79034824486301,
                31.086890413851354
              ],
              [
                72.70755672089041,
                31.00093467060811
              ],
              [
                72.77654965753425,
                30.882745523648648
              ],
              [
                72.73515389554795,
                30.796789780405405
              ],
              [
                72.67995954623288,
                30.635622761824326
              ],
              [
                72.61096660958904,
                30.549667018581083
              ],
              [
                72.51437649828767,
                30.474455743243244
              ],
              [
                72.40398779965754,
                30.36701106418919
              ],
              [
                72.41778638698631,
                30.24882191722973
              ],
              [
                72.26600192636987,
                30.227332981418918
              ],
              [
                72.15561322773972,
                30.141377238175675
              ],
              [
                72.0866202910959,
                30.076910430743244
              ],
              [
                72.04522452910959,
                29.937232347972973
              ],
              [
                72.04522452910959,
                29.937232347972973
              ],
              [
                72.0038287671233,
                29.91574341216216
              ],
              [
                71.92103724315069,
                29.91574341216216
              ],
              [
                71.82444713184931,
                29.92648788006757
              ],
              [
                71.82444713184931,
                29.958721283783785
              ],
              [
                71.85204430650685,
                30.001699155405404
              ],
              [
                71.87964148116438,
                30.06616596283784
              ],
              [
                71.75545419520549,
                30.06616596283784
              ],
              [
                71.6588640839041,
                29.9909546875
              ],
              [
                71.54847538527397,
                29.96946575168919
              ],
              [
                71.6588640839041,
                29.980210219594596
              ],
              [
                71.4932810359589,
                29.904998944256757
              ],
              [
                71.21730928938356,
                29.797554265202702
              ],
              [
                70.98273330479452,
                29.73308745777027
              ],
              [
                70.83094884417808,
                29.66862065033784
              ],
              [
                70.72056014554795,
                29.647131714527028
              ],
              [
                70.63776862157535,
                29.604153842905404
              ],
              [
                70.51358133561644,
                29.71159852195946
              ],
              [
                70.54117851027398,
                29.722342989864867
              ],
              [
                70.6101714469178,
                29.85127660472973
              ],
              [
                70.62397003424658,
                30.033932559121624
              ],
              [
                70.66536579623288,
                30.20584404560811
              ],
              [
                70.72056014554795,
                30.281055320945946
              ],
              [
                70.72056014554795,
                30.36701106418919
              ],
              [
                70.69296297089042,
                30.46371127533784
              ],
              [
                70.70676155821918,
                30.560411486486487
              ],
              [
                70.74815732020548,
                30.549667018581083
              ],
              [
                70.80335166952055,
                30.52817808277027
              ],
              [
                70.83094884417808,
                30.495944679054055
              ],
              [
                70.88614319349315,
                30.420733403716216
              ],
              [
                70.94133754280823,
                30.34552212837838
              ],
              [
                70.94133754280823,
                30.281055320945946
              ],
              [
                70.99653189212329,
                30.281055320945946
              ],
              [
                71.17591352739726,
                30.409988935810812
              ],
              [
                71.23110787671233,
                30.517433614864867
              ],
              [
                71.27250363869864,
                30.689345101351353
              ],
              [
                71.3276979880137,
                30.732322972972973
              ],
              [
                71.43808668664384,
                30.818278716216216
              ],
              [
                71.4932810359589,
                30.947212331081083
              ],
              [
                71.61746832191781,
                31.129868285472973
              ],
              [
                71.56227397260274,
                31.194335092905405
              ],
              [
                71.43808668664384,
                31.22656849662162
              ],
              [
                71.38289233732877,
                31.291035304054056
              ],
              [
                71.70025984589041,
                31.387735515202703
              ],
              [
                72.05902311643835,
                31.41996891891892
              ],
              [
                72.3349948630137,
                31.334013175675675
              ],
              [
                72.56957084760275,
                31.237312964527028
              ],
              [
                72.72135530821917,
                31.151357221283785
              ]
            ]
          ]
        ]
      },
      "properties": {
        "id": 4,
        "zone": "Northern irrigated plain",
        "code": null
      }
    },
    {
      "type": "Feature",
      "geometry": {
        "type": "MultiPolygon",
        "coordinates": [
          [
            [
              [
                72.56957084760275,
                32.773771875
              ],
              [
                72.65236237157535,
                32.816749746621625
              ],
              [
                72.69375813356164,
                32.79526081081081
              ],
              [
                72.69375813356164,
                32.7630274070946
              ],
              [
                72.66616095890411,
                32.698560599662166
              ],
              [
                72.65236237157535,
                32.65558272804054
              ],
              [
                72.58336943493151,
                32.58037145270271
              ],
              [
                72.4591821489726,
                32.569626984797296
              ],
              [
                72.41778638698631,
                32.52664911317568
              ],
              [
                72.2935991010274,
                32.505160177364864
              ],
              [
                72.23840475171234,
                32.44069336993243
              ],
              [
                72.11421746575343,
                32.268781883445946
              ],
              [
                72.10041887842466,
                32.19357060810811
              ],
              [
                72.10041887842466,
                32.09687039695946
              ],
              [
                72.07282170376713,
                31.967936782094597
              ],
              [
                72.15561322773972,
                31.946447846283785
              ],
              [
                72.2108075770548,
                31.871236570945946
              ],
              [
                72.15561322773972,
                31.828258699324326
              ],
              [
                72.0038287671233,
                31.91421444256757
              ],
              [
                71.94863441780822,
                31.97868125
              ],
              [
                71.87964148116438,
                32.03240358952703
              ],
              [
                71.78305136986302,
                32.07538146114865
              ],
              [
                71.71405843321918,
                32.15059273648649
              ],
              [
                71.60366973458905,
                32.19357060810811
              ],
              [
                71.47948244863014,
                32.21505954391892
              ],
              [
                71.43808668664384,
                32.268781883445946
              ],
              [
                71.43808668664384,
                32.322504222972974
              ],
              [
                71.60366973458905,
                32.483671241554056
              ],
              [
                71.81064854452055,
                32.634093792229734
              ],
              [
                72.04522452910959,
                32.70930506756757
              ],
              [
                72.18321040239726,
                32.7630274070946
              ],
              [
                72.43158497431507,
                32.773771875
              ],
              [
                72.56957084760275,
                32.773771875
              ]
            ]
          ]
        ]
      },
      "properties": {
        "id": 6,
        "zone": "Wet mountains",
        "code": null
      }
    },
    {
      "type": "Feature",
      "geometry": {
        "type": "MultiPolygon",
        "coordinates": [
          [
            [
              [
                73.31469456335617,
                33.14982825168919
              ],
              [
                73.35609032534246,
                33.23578399493243
              ],
              [
                73.35609032534246,
                33.214295059121625
              ],
              [
                73.35609032534246,
                33.1605727195946
              ],
              [
                73.38368750000001,
                33.117594847972974
              ],
              [
                73.3422917380137,
                33.10685038006757
              ],
              [
                73.28709738869863,
                33.10685038006757
              ],
              [
                73.19050727739726,
                33.10685038006757
              ],
              [
                73.09391716609589,
                33.085361444256755
              ],
              [
                73.01112564212329,
                33.05312804054054
              ],
              [
                72.90073694349316,
                33.01015016891892
              ],
              [
                72.81794541952056,
                32.934938893581084
              ],
              [
                72.74895248287672,
                32.91344995777027
              ],
              [
                72.69375813356164,
                32.82749421452703
              ],
              [
                72.58336943493151,
                32.773771875
              ],
              [
                72.41778638698631,
                32.773771875
              ],
              [
                72.27980051369863,
                32.7630274070946
              ],
              [
                72.1694118150685,
                32.75228293918919
              ],
              [
                72.10041887842466,
                32.698560599662166
              ],
              [
                71.89344006849315,
                32.64483826013514
              ],
              [
                71.76925278253425,
                32.61260485641892
              ],
              [
                71.5760725599315,
                32.52664911317568
              ],
              [
                71.4932810359589,
                32.39771549831081
              ],
              [
                71.45188527397261,
                32.27952635135135
              ],
              [
                71.35529516267124,
                32.25803741554054
              ],
              [
                71.3276979880137,
                32.24729294763514
              ],
              [
                71.27250363869864,
                32.21505954391892
              ],
              [
                71.18971211472603,
                32.15059273648649
              ],
              [
                71.16211494006849,
                32.11835933277027
              ],
              [
                71.05172624143836,
                32.09687039695946
              ],
              [
                71.01033047945205,
                32.06463699324324
              ],
              [
                70.99653189212329,
                32.021659121621624
              ],
              [
                71.02412906678083,
                31.935703378378378
              ],
              [
                70.99653189212329,
                31.892725506756758
              ],
              [
                70.89994178082192,
                31.860492103040542
              ],
              [
                70.83094884417808,
                31.849747635135135
              ],
              [
                70.76195590753424,
                31.828258699324326
              ],
              [
                70.69296297089042,
                31.828258699324326
              ],
              [
                70.66536579623288,
                31.860492103040542
              ],
              [
                70.65156720890411,
                31.892725506756758
              ],
              [
                70.62397003424658,
                31.95719231418919
              ],
              [
                70.6101714469178,
                32.03240358952703
              ],
              [
                70.63776862157535,
                32.05389252533784
              ],
              [
                70.84474743150685,
                32.07538146114865
              ],
              [
                70.88614319349315,
                32.12910380067568
              ],
              [
                70.89994178082192,
                32.24729294763514
              ],
              [
                70.83094884417808,
                32.33324869087838
              ],
              [
                70.92753895547945,
                32.40845996621622
              ],
              [
                71.02412906678083,
                32.505160177364864
              ],
              [
                71.1207191780822,
                32.59111592060811
              ],
              [
                71.1207191780822,
                32.66632719594595
              ],
              [
                71.13451776541096,
                32.80600527871621
              ],
              [
                71.05172624143836,
                32.95642782939189
              ],
              [
                70.94133754280823,
                33.085361444256755
              ],
              [
                71.02412906678083,
                33.19280612331081
              ],
              [
                71.21730928938356,
                33.23578399493243
              ],
              [
                71.3276979880137,
                33.300250802364864
              ],
              [
                71.4932810359589,
                33.429184417229735
              ],
              [
                71.71405843321918,
                33.46141782094595
              ],
              [
                72.03142594178082,
                33.493651224662166
              ],
              [
                72.03142594178082,
                33.493651224662166
              ],
              [
                72.40398779965754,
                33.493651224662166
              ],
              [
                72.67995954623288,
                33.5688625
              ],
              [
                72.92833411815069,
                33.53662909628378
              ],
              [
                73.03872281678082,
                33.47216228885135
              ],
              [
                73.20430586472602,
                33.45067335304054
              ],
              [
                73.32849315068493,
                33.300250802364864
              ],
              [
                73.31469456335617,
                33.14982825168919
              ],
              [
                73.31469456335617,
                33.14982825168919
              ]
            ]
          ]
        ]
      },
      "properties": {
        "id": 7,
        "zone": "Northern dry mountains",
        "code": null
      }
    },
    {
      "type": "Feature",
      "geometry": {
        "type": "MultiPolygon",
        "coordinates": [
          [
            [
              [
                70.6101714469178,
                32.03240358952703
              ],
              [
                70.59637285958904,
                32.04314805743243
              ],
              [
                70.6101714469178,
                32.03240358952703
              ],
              [
                70.6101714469178,
                32.01091465371622
              ],
              [
                70.63776862157535,
                31.97868125
              ],
              [
                70.63776862157535,
                31.935703378378378
              ],
              [
                70.65156720890411,
                31.903469974662162
              ],
              [
                70.66536579623288,
                31.860492103040542
              ],
              [
                70.74815732020548,
                31.83900316722973
              ],
              [
                70.85854601883563,
                31.849747635135135
              ],
              [
                70.94133754280823,
                31.860492103040542
              ],
              [
                70.98273330479452,
                31.892725506756758
              ],
              [
                71.06552482876712,
                31.903469974662162
              ],
              [
                71.18971211472603,
                31.892725506756758
              ],
              [
                71.27250363869864,
                31.903469974662162
              ],
              [
                71.4104895119863,
                31.91421444256757
              ],
              [
                71.43808668664384,
                31.903469974662162
              ],
              [
                71.42428809931508,
                31.860492103040542
              ],
              [
                71.36909375,
                31.7745363597973
              ],
              [
                71.3276979880137,
                31.742302956081083
              ],
              [
                71.31389940068493,
                31.742302956081083
              ],
              [
                71.30010081335617,
                31.69932508445946
              ],
              [
                71.25870505136986,
                31.645602744932432
              ],
              [
                71.2449064640411,
                31.602624873310813
              ],
              [
                71.18971211472603,
                31.5811359375
              ],
              [
                71.1207191780822,
                31.55964700168919
              ],
              [
                71.0379276541096,
                31.51666913006757
              ],
              [
                70.98273330479452,
                31.495180194256758
              ],
              [
                70.92753895547945,
                31.430713386824326
              ],
              [
                70.88614319349315,
                31.41996891891892
              ],
              [
                70.88614319349315,
                31.495180194256758
              ],
              [
                70.88614319349315,
                31.527413597972973
              ],
              [
                70.84474743150685,
                31.548902533783785
              ],
              [
                70.80335166952055,
                31.55964700168919
              ],
              [
                70.76195590753424,
                31.5811359375
              ],
              [
                70.70676155821918,
                31.5811359375
              ],
              [
                70.67916438356164,
                31.591880405405405
              ],
              [
                70.63776862157535,
                31.55964700168919
              ],
              [
                70.59637285958904,
                31.51666913006757
              ],
              [
                70.59637285958904,
                31.505924662162162
              ],
              [
                70.54117851027398,
                31.462946790540542
              ],
              [
                70.51358133561644,
                31.3769910472973
              ],
              [
                70.51358133561644,
                31.355502111486487
              ],
              [
                70.45838698630138,
                31.355502111486487
              ],
              [
                70.41699122431507,
                31.32326870777027
              ],
              [
                70.41699122431507,
                31.25880190033784
              ],
              [
                70.41699122431507,
                31.183590625
              ],
              [
                70.4445883989726,
                31.14061275337838
              ],
              [
                70.4859841609589,
                31.129868285472973
              ],
              [
                70.45838698630138,
                31.10837934966216
              ],
              [
                70.4031926369863,
                31.04391254222973
              ],
              [
                70.361796875,
                30.957956798986487
              ],
              [
                70.361796875,
                30.893489991554056
              ],
              [
                70.38939404965754,
                30.796789780405405
              ],
              [
                70.38939404965754,
                30.743067440878377
              ],
              [
                70.41699122431507,
                30.657111697635138
              ],
              [
                70.4445883989726,
                30.62487829391892
              ],
              [
                70.47218557363014,
                30.57115595439189
              ],
              [
                70.47218557363014,
                30.485200211148648
              ],
              [
                70.51358133561644,
                30.442222339527028
              ],
              [
                70.47218557363014,
                30.356266596283785
              ],
              [
                70.45838698630138,
                30.31328872466216
              ],
              [
                70.4445883989726,
                30.27031085304054
              ],
              [
                70.38939404965754,
                30.1843551097973
              ],
              [
                70.33419970034247,
                30.141377238175675
              ],
              [
                70.2790053510274,
                30.098399366554055
              ],
              [
                70.2790053510274,
                30.055421494932432
              ],
              [
                70.2790053510274,
                29.96946575168919
              ],
              [
                70.30660252568494,
                29.958721283783785
              ],
              [
                70.33419970034247,
                29.91574341216216
              ],
              [
                70.2790053510274,
                29.883510008445946
              ],
              [
                70.25140817636986,
                29.840532136824326
              ],
              [
                70.22381100171233,
                29.765320861486487
              ],
              [
                70.16861665239726,
                29.722342989864867
              ],
              [
                70.1548180650685,
                29.66862065033784
              ],
              [
                70.05822795376713,
                29.625642778716216
              ],
              [
                69.96163784246576,
                29.582664907094596
              ],
              [
                69.90644349315069,
                29.593409375
              ],
              [
                69.80985338184932,
                29.625642778716216
              ],
              [
                69.68566609589041,
                29.625642778716216
              ],
              [
                69.56147880993151,
                29.63638724662162
              ],
              [
                69.46488869863013,
                29.63638724662162
              ],
              [
                69.4372915239726,
                29.66862065033784
              ],
              [
                69.3958957619863,
                29.71159852195946
              ],
              [
                69.4372915239726,
                29.73308745777027
              ],
              [
                69.47868728595891,
                29.765320861486487
              ],
              [
                69.4372915239726,
                29.797554265202702
              ],
              [
                69.3958957619863,
                29.87276554054054
              ],
              [
                69.36829858732877,
                29.92648788006757
              ],
              [
                69.34070141267124,
                29.96946575168919
              ],
              [
                69.32690282534247,
                30.012443623310812
              ],
              [
                69.28550706335616,
                30.033932559121624
              ],
              [
                69.1889169520548,
                30.044677027027028
              ],
              [
                69.11992401541096,
                30.033932559121624
              ],
              [
                69.02333390410959,
                30.033932559121624
              ],
              [
                68.96813955479452,
                29.9909546875
              ],
              [
                68.95434096746575,
                29.96946575168919
              ],
              [
                68.89914661815068,
                29.96946575168919
              ],
              [
                68.89914661815068,
                29.94797681587838
              ],
              [
                68.91294520547946,
                29.883510008445946
              ],
              [
                68.94054238013699,
                29.840532136824326
              ],
              [
                68.94054238013699,
                29.765320861486487
              ],
              [
                68.89914661815068,
                29.690109586148647
              ],
              [
                68.89914661815068,
                29.593409375
              ],
              [
                68.88534803082192,
                29.52894256756757
              ],
              [
                68.84395226883562,
                29.442986824324326
              ],
              [
                68.84395226883562,
                29.400008952702702
              ],
              [
                68.85775085616439,
                29.292564273648647
              ],
              [
                68.91294520547946,
                29.228097466216216
              ],
              [
                68.95434096746575,
                29.1958640625
              ],
              [
                68.87154944349315,
                29.099163851351353
              ],
              [
                68.84395226883562,
                29.023952576013514
              ],
              [
                68.80255650684931,
                28.927252364864863
              ],
              [
                68.78875791952055,
                28.895018961148647
              ],
              [
                68.67836922089042,
                28.895018961148647
              ],
              [
                68.59557769691781,
                28.841296621621623
              ],
              [
                68.59557769691781,
                28.79831875
              ],
              [
                68.54038334760274,
                28.744596410472973
              ],
              [
                68.44379323630137,
                28.73385194256757
              ],
              [
                68.34720312500001,
                28.701618538851353
              ],
              [
                68.23681442636986,
                28.701618538851353
              ],
              [
                68.1816200770548,
                28.68012960304054
              ],
              [
                68.12642572773973,
                28.766085346283784
              ],
              [
                68.08502996575342,
                28.841296621621623
              ],
              [
                68.07123137842466,
                28.91650789695946
              ],
              [
                68.02983561643836,
                29.023952576013514
              ],
              [
                68.02983561643836,
                29.109908319256757
              ],
              [
                68.08502996575342,
                29.185119594594596
              ],
              [
                68.11262714041096,
                29.281819805743243
              ],
              [
                68.12642572773973,
                29.367775548986486
              ],
              [
                68.1816200770548,
                29.45373129222973
              ],
              [
                68.20921725171233,
                29.539687035472973
              ],
              [
                68.19541866438357,
                29.614898310810812
              ],
              [
                68.23681442636986,
                29.66862065033784
              ],
              [
                68.25061301369863,
                29.743831925675675
              ],
              [
                68.20921725171233,
                29.819043201013514
              ],
              [
                68.23681442636986,
                29.87276554054054
              ],
              [
                68.29200877568493,
                29.92648788006757
              ],
              [
                68.31960595034246,
                30.012443623310812
              ],
              [
                68.29200877568493,
                30.098399366554055
              ],
              [
                68.29200877568493,
                30.141377238175675
              ],
              [
                68.29200877568493,
                30.27031085304054
              ],
              [
                68.31960595034246,
                30.345522128378377
              ],
              [
                68.31960595034246,
                30.399244467905405
              ],
              [
                68.3058073630137,
                30.485200211148648
              ],
              [
                68.3885988869863,
                30.5819004222973
              ],
              [
                68.52658476027398,
                30.657111697635138
              ],
              [
                68.58177910958905,
                30.72157850506757
              ],
              [
                68.67836922089042,
                30.753811908783785
              ],
              [
                68.77495933219178,
                30.743067440878377
              ],
              [
                68.94054238013699,
                30.72157850506757
              ],
              [
                69.06472966609589,
                30.76455637668919
              ],
              [
                69.11992401541096,
                30.82902318412162
              ],
              [
                69.1061254280822,
                30.90423445945946
              ],
              [
                69.1889169520548,
                30.914978927364867
              ],
              [
                69.3545,
                30.990190202702703
              ],
              [
                69.50628446061644,
                31.00093467060811
              ],
              [
                69.65806892123288,
                30.957956798986487
              ],
              [
                69.80985338184932,
                30.957956798986487
              ],
              [
                69.92024208047945,
                31.086890413851354
              ],
              [
                69.92024208047945,
                31.172846157094593
              ],
              [
                69.94783925513698,
                31.344757643581083
              ],
              [
                70.00303360445206,
                31.3769910472973
              ],
              [
                70.00303360445206,
                31.473691258445946
              ],
              [
                70.05822795376713,
                31.5811359375
              ],
              [
                70.16861665239726,
                31.645602744932432
              ],
              [
                70.25140817636986,
                31.645602744932432
              ],
              [
                70.361796875,
                31.677836148648648
              ],
              [
                70.45838698630138,
                31.76379189189189
              ],
              [
                70.43078981164383,
                31.806769763513515
              ],
              [
                70.38939404965754,
                31.871236570945946
              ],
              [
                70.34799828767123,
                31.946447846283785
              ],
              [
                70.2376095890411,
                32.01091465371622
              ],
              [
                70.25140817636986,
                32.07538146114865
              ],
              [
                70.361796875,
                32.05389252533784
              ],
              [
                70.47218557363014,
                32.03240358952703
              ],
              [
                70.6101714469178,
                32.03240358952703
              ]
            ]
          ]
        ]
      },
      "properties": {
        "id": 8,
        "zone": "Western dry mountains",
        "code": null
      }
    },
    {
      "type": "Feature",
      "geometry": {
        "type": "MultiPolygon",
        "coordinates": [
          [
            [
              [
                68.29200877568493,
                30.076910430743244
              ],
              [
                68.27821018835617,
                30.076910430743244
              ],
              [
                68.31960595034246,
                30.076910430743244
              ],
              [
                68.31960595034246,
                30.033932559121624
              ],
              [
                68.3058073630137,
                29.96946575168919
              ],
              [
                68.29200877568493,
                29.947976815878377
              ],
              [
                68.23681442636986,
                29.862021072635137
              ],
              [
                68.20921725171233,
                29.819043201013514
              ],
              [
                68.27821018835617,
                29.73308745777027
              ],
              [
                68.2644116010274,
                29.65787618243243
              ],
              [
                68.23681442636986,
                29.582664907094596
              ],
              [
                68.2230158390411,
                29.539687035472973
              ],
              [
                68.20921725171233,
                29.485964695945945
              ],
              [
                68.1816200770548,
                29.421497888513514
              ],
              [
                68.1402243150685,
                29.357031081081082
              ],
              [
                68.12642572773973,
                29.324797677364867
              ],
              [
                68.12642572773973,
                29.26033086993243
              ],
              [
                68.12642572773973,
                29.1958640625
              ],
              [
                68.0988285530822,
                29.17437512668919
              ],
              [
                68.07123137842466,
                29.088419383445945
              ],
              [
                68.02983561643836,
                29.05618597972973
              ],
              [
                68.05743279109589,
                28.970230236486486
              ],
              [
                68.07123137842466,
                28.91650789695946
              ],
              [
                68.11262714041096,
                28.830552153716216
              ],
              [
                68.1402243150685,
                28.744596410472973
              ],
              [
                68.1816200770548,
                28.701618538851353
              ],
              [
                68.23681442636986,
                28.690874070945945
              ],
              [
                68.33340453767123,
                28.72310747466216
              ],
              [
                68.40239747431507,
                28.744596410472973
              ],
              [
                68.51278617294521,
                28.75534087837838
              ],
              [
                68.58177910958905,
                28.75534087837838
              ],
              [
                68.58177910958905,
                28.79831875
              ],
              [
                68.62317487157534,
                28.830552153716216
              ],
              [
                68.67836922089042,
                28.87353002533784
              ],
              [
                68.73356357020548,
                28.884274493243243
              ],
              [
                68.83015368150686,
                28.884274493243243
              ],
              [
                68.84395226883562,
                28.86278555743243
              ],
              [
                68.84395226883562,
                28.81980768581081
              ],
              [
                68.83015368150686,
                28.744596410472973
              ],
              [
                68.80255650684931,
                28.701618538851353
              ],
              [
                68.80255650684931,
                28.61566279560811
              ],
              [
                68.83015368150686,
                28.551195988175675
              ],
              [
                68.89914661815068,
                28.46524024493243
              ],
              [
                68.96813955479452,
                28.454495777027027
              ],
              [
                69.06472966609589,
                28.4007734375
              ],
              [
                69.11992401541096,
                28.357795565878376
              ],
              [
                69.13372260273972,
                28.28258429054054
              ],
              [
                69.17511836472603,
                28.250350886824325
              ],
              [
                69.23031271404109,
                28.228861951013513
              ],
              [
                69.29930565068493,
                28.196628547297298
              ],
              [
                69.32690282534247,
                28.153650675675674
              ],
              [
                69.32690282534247,
                28.09992833614865
              ],
              [
                69.32690282534247,
                28.056950464527027
              ],
              [
                69.28550706335616,
                27.992483657094596
              ],
              [
                69.23031271404109,
                27.960250253378376
              ],
              [
                69.17511836472603,
                27.960250253378376
              ],
              [
                69.17511836472603,
                27.928016849662164
              ],
              [
                69.06472966609589,
                27.842061106418917
              ],
              [
                68.94054238013699,
                27.777594298986486
              ],
              [
                68.78875791952055,
                27.72387195945946
              ],
              [
                68.70596639554795,
                27.713127491554054
              ],
              [
                68.63697345890411,
                27.713127491554054
              ],
              [
                68.56798052226027,
                27.713127491554054
              ],
              [
                68.4713904109589,
                27.74536089527027
              ],
              [
                68.45759182363014,
                27.809827702702705
              ],
              [
                68.42999464897261,
                27.874294510135137
              ],
              [
                68.40239747431507,
                27.917272381756757
              ],
              [
                68.40239747431507,
                27.981739189189188
              ],
              [
                68.33340453767123,
                28.06769493243243
              ],
              [
                68.23681442636986,
                28.07843940033784
              ],
              [
                68.1402243150685,
                28.056950464527027
              ],
              [
                68.12642572773973,
                27.981739189189188
              ],
              [
                68.00223844178082,
                27.981739189189188
              ],
              [
                67.87805115582192,
                28.003228125
              ],
              [
                67.79525963184932,
                27.928016849662164
              ],
              [
                67.65727375856164,
                27.970994721283784
              ],
              [
                67.57448223458904,
                27.895783445945945
              ],
              [
                67.49169071061644,
                27.895783445945945
              ],
              [
                67.39510059931507,
                27.874294510135137
              ],
              [
                67.2157189640411,
                27.928016849662164
              ],
              [
                67.02253874143835,
                27.917272381756757
              ],
              [
                66.91215004280822,
                27.949505785472972
              ],
              [
                66.80176134417809,
                27.949505785472972
              ],
              [
                66.70517123287671,
                27.928016849662164
              ],
              [
                66.5395881849315,
                27.928016849662164
              ],
              [
                66.4154008989726,
                27.928016849662164
              ],
              [
                66.31881078767124,
                27.88503897804054
              ],
              [
                66.2912136130137,
                27.842061106418917
              ],
              [
                66.22222067636986,
                27.809827702702705
              ],
              [
                66.12563056506849,
                27.842061106418917
              ],
              [
                65.98764469178083,
                27.88503897804054
              ],
              [
                65.93245034246576,
                27.938761317567568
              ],
              [
                65.84965881849315,
                27.949505785472972
              ],
              [
                65.80826305650685,
                27.895783445945945
              ],
              [
                65.73927011986301,
                27.86355004222973
              ],
              [
                65.64268000856164,
                27.86355004222973
              ],
              [
                65.55988848458904,
                27.938761317567568
              ],
              [
                65.58748565924658,
                28.046205996621623
              ],
              [
                65.60128424657535,
                28.14290620777027
              ],
              [
                65.61508283390411,
                28.175139611486486
              ],
              [
                65.69787435787671,
                28.28258429054054
              ],
              [
                65.72547153253424,
                28.443751309121623
              ],
              [
                65.80826305650685,
                28.46524024493243
              ],
              [
                65.91865175513699,
                28.411517905405407
              ],
              [
                65.98764469178083,
                28.551195988175675
              ],
              [
                66.07043621575343,
                28.58342939189189
              ],
              [
                66.51199101027397,
                28.604918327702702
              ],
              [
                66.5395881849315,
                28.73385194256757
              ],
              [
                66.55338677226028,
                28.884274493243243
              ],
              [
                66.51199101027397,
                28.905763429054055
              ],
              [
                66.3740051369863,
                28.89501896114865
              ],
              [
                66.30501220034246,
                28.927252364864863
              ],
              [
                66.30501220034246,
                28.980974704391894
              ],
              [
                66.31881078767124,
                29.26033086993243
              ],
              [
                66.332609375,
                29.367775548986486
              ],
              [
                66.27741502568493,
                29.432242356418918
              ],
              [
                66.07043621575343,
                29.47522022804054
              ],
              [
                65.86345740582192,
                29.561175971283784
              ],
              [
                65.69787435787671,
                29.743831925675675
              ],
              [
                65.3253125,
                30.152121706081083
              ],
              [
                65.46329837328767,
                30.162866173986487
              ],
              [
                66.19462350171233,
                29.937232347972973
              ],
              [
                66.63617829623288,
                29.9909546875
              ],
              [
                66.92594863013699,
                29.947976815878377
              ],
              [
                67.07773309075343,
                29.947976815878377
              ],
              [
                67.1743232020548,
                29.96946575168919
              ],
              [
                67.24331613869863,
                29.9909546875
              ],
              [
                67.67107234589041,
                29.937232347972973
              ],
              [
                68.01603702910958,
                30.044677027027028
              ],
              [
                68.29200877568493,
                30.076910430743244
              ]
            ]
          ]
        ]
      },
      "properties": {
        "id": 9,
        "zone": "Dry western plateau",
        "code": null
      }
    },
    {
      "type": "Feature",
      "geometry": {
        "type": "MultiPolygon",
        "coordinates": [
          [
            [
              [
                71.3276979880137,
                31.30177977195946
              ],
              [
                71.2449064640411,
                31.291035304054056
              ],
              [
                71.30010081335617,
                31.30177977195946
              ],
              [
                71.36909375,
                31.30177977195946
              ],
              [
                71.39669092465753,
                31.291035304054056
              ],
              [
                71.43808668664384,
                31.237312964527028
              ],
              [
                71.43808668664384,
                31.205079560810812
              ],
              [
                71.4932810359589,
                31.194335092905405
              ],
              [
                71.54847538527397,
                31.183590625
              ],
              [
                71.58987114726028,
                31.16210168918919
              ],
              [
                71.58987114726028,
                31.11912381756757
              ],
              [
                71.56227397260274,
                31.086890413851354
              ],
              [
                71.53467679794521,
                31.04391254222973
              ],
              [
                71.4932810359589,
                31.011679138513514
              ],
              [
                71.46568386130137,
                30.92572339527027
              ],
              [
                71.43808668664384,
                30.872001055743244
              ],
              [
                71.42428809931508,
                30.796789780405405
              ],
              [
                71.38289233732877,
                30.753811908783785
              ],
              [
                71.3276979880137,
                30.72157850506757
              ],
              [
                71.27250363869864,
                30.678600633445946
              ],
              [
                71.2449064640411,
                30.60338935810811
              ],
              [
                71.23110787671233,
                30.549667018581083
              ],
              [
                71.21730928938356,
                30.495944679054055
              ],
              [
                71.16211494006849,
                30.420733403716216
              ],
              [
                71.06552482876712,
                30.356266596283785
              ],
              [
                70.99653189212329,
                30.302544256756757
              ],
              [
                70.94133754280823,
                30.291799788851353
              ],
              [
                70.89994178082192,
                30.356266596283785
              ],
              [
                70.84474743150685,
                30.46371127533784
              ],
              [
                70.80335166952055,
                30.50668914695946
              ],
              [
                70.74815732020548,
                30.549667018581083
              ],
              [
                70.69296297089042,
                30.549667018581083
              ],
              [
                70.69296297089042,
                30.635622761824326
              ],
              [
                70.72056014554795,
                30.71083403716216
              ],
              [
                70.72056014554795,
                30.76455637668919
              ],
              [
                70.74815732020548,
                30.850512119932432
              ],
              [
                70.74815732020548,
                30.893489991554056
              ],
              [
                70.74815732020548,
                30.9794457347973
              ],
              [
                70.76195590753424,
                31.04391254222973
              ],
              [
                70.76195590753424,
                31.065401478040542
              ],
              [
                70.81715025684932,
                31.065401478040542
              ],
              [
                70.72056014554795,
                30.96870126689189
              ],
              [
                70.77575449486301,
                31.054657010135134
              ],
              [
                70.80335166952055,
                31.065401478040542
              ],
              [
                70.94133754280823,
                31.129868285472973
              ],
              [
                71.09312200342465,
                31.205079560810812
              ],
              [
                71.21730928938356,
                31.30177977195946
              ],
              [
                71.3276979880137,
                31.30177977195946
              ]
            ]
          ]
        ]
      },
      "properties": {
        "id": 33,
        "zone": "sandy desert b",
        "code": null
      }
    },
    {
      "type": "Feature",
      "geometry": {
        "type": "MultiPolygon",
        "coordinates": [
          [
            [
              [
                71.43808668664384,
                32.268781883445946
              ],
              [
                71.3276979880137,
                32.268781883445946
              ],
              [
                71.39669092465753,
                32.27952635135135
              ],
              [
                71.43808668664384,
                32.25803741554054
              ],
              [
                71.46568386130137,
                32.22580401182432
              ],
              [
                71.4932810359589,
                32.204315076013515
              ],
              [
                71.60366973458905,
                32.204315076013515
              ],
              [
                71.68646125856165,
                32.18282614020271
              ],
              [
                71.71405843321918,
                32.15059273648649
              ],
              [
                71.78305136986302,
                32.107614864864864
              ],
              [
                71.85204430650685,
                32.04314805743243
              ],
              [
                71.82444713184931,
                32.03240358952703
              ],
              [
                71.78305136986302,
                32.00017018581081
              ],
              [
                71.74165560787671,
                31.989425717905405
              ],
              [
                71.6588640839041,
                31.935703378378378
              ],
              [
                71.61746832191781,
                31.924958910472974
              ],
              [
                71.54847538527397,
                31.924958910472974
              ],
              [
                71.50707962328768,
                31.924958910472974
              ],
              [
                71.43808668664384,
                31.924958910472974
              ],
              [
                71.31389940068493,
                31.935703378378378
              ],
              [
                71.21730928938356,
                31.924958910472974
              ],
              [
                71.14831635273973,
                31.91421444256757
              ],
              [
                71.06552482876712,
                31.903469974662162
              ],
              [
                71.01033047945205,
                31.892725506756758
              ],
              [
                70.99653189212329,
                31.924958910472974
              ],
              [
                70.99653189212329,
                32.00017018581081
              ],
              [
                70.99653189212329,
                32.05389252533784
              ],
              [
                71.02412906678083,
                32.086125929054056
              ],
              [
                71.07932341609589,
                32.09687039695946
              ],
              [
                71.13451776541096,
                32.11835933277027
              ],
              [
                71.21730928938356,
                32.172081672297296
              ],
              [
                71.27250363869864,
                32.204315076013515
              ],
              [
                71.30010081335617,
                32.24729294763514
              ],
              [
                71.35529516267124,
                32.268781883445946
              ],
              [
                71.43808668664384,
                32.268781883445946
              ]
            ]
          ]
        ]
      },
      "properties": {
        "id": 44,
        "zone": "Northern irrigated plain b",
        "code": null
      }
    }
  ]
}