{
  "type": "FeatureCollection",
  "crs": {
    "type": "name",
    "properties": {
      "name": "EPSG:4326"
    }
  },
  "features": [
    {
      "type": "Feature",
      "geometry": {
        "type": "MultiPolygon",
        "coordinates": [
          [
            [
              [
                76.41356678082192,
                31.971895270270274
              ],
              [
                75.25158047945206,
                32.60525337837838
              ],
              [
                73.2181044520548,
                32.24333445945946
              ],
              [
                72.11421746575343,
                31.76831587837838
              ],
              [
                71.5332243150685,
                31.926655405405405
              ],
              [
                71.62037328767124,
                32.401673986486486
              ],
              [
                72.11421746575343,
                32.85407263513514
              ],
              [
                72.54996232876712,
                32.80883277027027
              ],
              [
                72.60806164383563,
                32.56001351351352
              ],
              [
                72.92760787671233,
                32.740972972972976
              ],
              [
                73.33430308219178,
                32.98979222972973
              ],
              [
                73.59575000000001,
                33.261231418918925
              ],
              [
                73.79909760273972,
                33.60053040540541
              ],
              [
                74.26389212328768,
                33.66839020270271
              ],
              [
                74.55438869863013,
                33.84934966216217
              ],
              [
                74.87393493150685,
                33.8041097972973
              ],
              [
                74.99013356164384,
                33.62315033783784
              ],
              [
                75.25158047945206,
                33.44219087837838
              ],
              [
                75.22253082191781,
                33.17075168918919
              ],
              [
                75.42587842465754,
                32.9671722972973
              ],
              [
                75.94877226027398,
                32.8993125
              ],
              [
                76.47166609589041,
                32.62787331081081
              ],
              [
                76.70406335616438,
                32.46953378378379
              ],
              [
                77.22695719178083,
                32.446913851351354
              ],
              [
                77.22695719178083,
                32.356434121621625
              ],
              [
                77.1398082191781,
                32.175474662162166
              ],
              [
                76.67501369863014,
                31.994515202702704
              ],
              [
                76.5297654109589,
                31.94927533783784
              ],
              [
                76.41356678082192,
                31.971895270270274
              ]
            ]
          ]
        ]
      },
      "properties": {
        "id": 5,
        "zone": "Barani lands",
        "code": null
      }
    },
    {
      "type": "Feature",
      "geometry": {
        "type": "MultiPolygon",
        "coordinates": [
          [
            [
              [
                72.25946575342466,
                31.790935810810815
              ],
              [
                72.23041609589042,
                31.813555743243246
              ],
              [
                72.28851541095891,
                31.723076013513513
              ],
              [
                72.23041609589042,
                31.112337837837842
              ],
              [
                72.20136643835616,
                30.77303885135135
              ],
              [
                72.23041609589042,
                30.43373986486487
              ],
              [
                72.23041609589042,
                30.162300675675677
              ],
              [
                72.14326712328767,
                29.845621621621625
              ],
              [
                72.08516780821918,
                29.506322635135135
              ],
              [
                72.05611815068494,
                29.212263513513516
              ],
              [
                71.79467123287671,
                28.87296452702703
              ],
              [
                71.01033047945205,
                28.51104560810811
              ],
              [
                70.54553595890411,
                28.39794594594595
              ],
              [
                69.87739383561645,
                28.375326013513515
              ],
              [
                69.32545034246576,
                28.284846283783786
              ],
              [
                68.77350684931507,
                28.05864695945946
              ],
              [
                68.51205993150685,
                27.92292736486487
              ],
              [
                68.30871232876713,
                28.03602702702703
              ],
              [
                68.27966267123288,
                28.23960641891892
              ],
              [
                68.33776198630137,
                28.443185810810814
              ],
              [
                68.39586130136986,
                28.646765202702703
              ],
              [
                68.45396061643835,
                28.918204391891894
              ],
              [
                68.5411095890411,
                29.099163851351353
              ],
              [
                68.48301027397261,
                29.302743243243246
              ],
              [
                68.27966267123288,
                29.461082770270274
              ],
              [
                68.45396061643835,
                29.461082770270274
              ],
              [
                68.57015924657534,
                29.52894256756757
              ],
              [
                68.83160616438356,
                29.642042229729732
              ],
              [
                69.20925171232876,
                29.551562500000003
              ],
              [
                69.44164897260274,
                29.212263513513516
              ],
              [
                69.55784760273973,
                29.144403716216218
              ],
              [
                69.61594691780822,
                29.008684121621624
              ],
              [
                69.44164897260274,
                28.918204391891894
              ],
              [
                69.70309589041096,
                28.759864864864866
              ],
              [
                70.2840890410959,
                28.805104729729734
              ],
              [
                70.54553595890411,
                28.646765202702703
              ],
              [
                70.89413184931507,
                28.737244932432432
              ],
              [
                70.95223116438356,
                28.805104729729734
              ],
              [
                71.18462842465753,
                29.16702364864865
              ],
              [
                71.4170256849315,
                29.461082770270274
              ],
              [
                71.30082705479452,
                29.551562500000003
              ],
              [
                71.30082705479452,
                29.73252195945946
              ],
              [
                71.76562157534246,
                30.320640202702705
              ],
              [
                71.76562157534246,
                30.592079391891893
              ],
              [
                71.44607534246576,
                31.45163682432433
              ],
              [
                71.64942294520549,
                31.94927533783784
              ],
              [
                72.25946575342466,
                31.790935810810815
              ]
            ]
          ]
        ]
      },
      "properties": {
        "id": 10,
        "zone": "Sulaiman piedmont",
        "code": null
      }
    },
    {
      "type": "Feature",
      "geometry": {
        "type": "MultiPolygon",
        "coordinates": [
          [
            [
              [
                69.26735102739727,
                25.208535472972976
              ],
              [
                69.15115239726028,
                25.27639527027027
              ],
              [
                69.32545034246576,
                25.050195945945948
              ],
              [
                69.55784760273973,
                24.756136824324326
              ],
              [
                69.70309589041096,
                24.462077702702704
              ],
              [
                69.90644349315069,
                24.235878378378377
              ],
              [
                69.81929452054794,
                24.077538851351353
              ],
              [
                69.61594691780822,
                23.85133952702703
              ],
              [
                69.12210273972603,
                23.693
              ],
              [
                68.57015924657534,
                23.693
              ],
              [
                68.16346404109589,
                24.05491891891892
              ],
              [
                68.1053647260274,
                24.41683783783784
              ],
              [
                67.84391780821917,
                24.733516891891895
              ],
              [
                67.90201712328768,
                24.756136824324326
              ],
              [
                68.27966267123288,
                24.82399662162162
              ],
              [
                68.71540753424658,
                24.98233614864865
              ],
              [
                68.9768544520548,
                25.253775337837837
              ],
              [
                69.23830136986302,
                25.208535472972976
              ],
              [
                69.26735102739727,
                25.208535472972976
              ]
            ]
          ]
        ]
      },
      "properties": {
        "id": 1,
        "zone": "Indus delta",
        "code": null
      }
    },
    {
      "type": "Feature",
      "geometry": {
        "type": "MultiPolygon",
        "coordinates": [
          [
            [
              [
                71.82372089041097,
                28.918204391891894
              ],
              [
                71.88182020547946,
                28.94082432432433
              ],
              [
                71.93991952054795,
                28.87296452702703
              ],
              [
                72.08516780821918,
                28.737244932432432
              ],
              [
                72.05611815068494,
                28.669385135135137
              ],
              [
                71.96896917808219,
                28.48842567567568
              ],
              [
                71.79467123287671,
                28.284846283783786
              ],
              [
                71.4170256849315,
                28.103886824324327
              ],
              [
                71.12652910958904,
                27.92292736486487
              ],
              [
                70.89413184931507,
                27.764587837837837
              ],
              [
                70.69078424657535,
                27.719347972972976
              ],
              [
                70.34218835616439,
                27.49314864864865
              ],
              [
                70.02264212328768,
                27.334809121621625
              ],
              [
                69.84834417808219,
                27.063369932432433
              ],
              [
                69.70309589041096,
                26.814550675675676
              ],
              [
                69.70309589041096,
                26.633591216216217
              ],
              [
                69.70309589041096,
                26.45263175675676
              ],
              [
                69.87739383561645,
                26.29429222972973
              ],
              [
                70.05169178082193,
                26.18119256756757
              ],
              [
                70.2840890410959,
                26.113332770270272
              ],
              [
                70.51648630136987,
                25.84189358108108
              ],
              [
                70.69078424657535,
                25.683554054054056
              ],
              [
                70.80698287671233,
                25.570454391891893
              ],
              [
                71.06842979452055,
                25.479974662162164
              ],
              [
                71.18462842465753,
                25.253775337837837
              ],
              [
                71.0974794520548,
                25.208535472972976
              ],
              [
                70.9812808219178,
                25.07281587837838
              ],
              [
                70.89413184931507,
                24.89185641891892
              ],
              [
                70.80698287671233,
                24.778756756756756
              ],
              [
                70.6036352739726,
                24.620417229729732
              ],
              [
                70.54553595890411,
                24.32635810810811
              ],
              [
                70.34218835616439,
                24.168018581081082
              ],
              [
                69.99359246575342,
                24.168018581081082
              ],
              [
                69.23830136986302,
                25.299015202702705
              ],
              [
                69.26735102739727,
                25.321635135135136
              ],
              [
                69.29640068493151,
                25.615694256756758
              ],
              [
                69.18020205479452,
                25.81927364864865
              ],
              [
                68.88970547945206,
                25.932373310810814
              ],
              [
                68.80255650684931,
                26.113332770270272
              ],
              [
                68.59920890410959,
                26.271672297297297
              ],
              [
                68.25061301369863,
                26.38477195945946
              ],
              [
                68.16346404109589,
                26.724070945945947
              ],
              [
                68.25061301369863,
                27.040750000000003
              ],
              [
                68.25061301369863,
                27.38004898648649
              ],
              [
                68.33776198630137,
                27.719347972972976
              ],
              [
                68.51205993150685,
                27.9455472972973
              ],
              [
                68.80255650684931,
                28.103886824324327
              ],
              [
                69.06400342465753,
                28.194366554054056
              ],
              [
                69.52879794520548,
                28.33008614864865
              ],
              [
                70.05169178082193,
                28.375326013513515
              ],
              [
                70.54553595890411,
                28.42056587837838
              ],
              [
                70.95223116438356,
                28.465805743243244
              ],
              [
                71.18462842465753,
                28.624145270270272
              ],
              [
                71.50417465753425,
                28.759864864864866
              ],
              [
                71.82372089041097,
                28.918204391891894
              ]
            ]
          ]
        ]
      },
      "properties": {
        "id": 2,
        "zone": "Southern irrigated plain",
        "code": null
      }
    },
    {
      "type": "Feature",
      "geometry": {
        "type": "MultiPolygon",
        "coordinates": [
          [
            [
              [
                74.9029845890411,
                29.43846283783784
              ],
              [
                74.87393493150685,
                29.43846283783784
              ],
              [
                74.9029845890411,
                29.43846283783784
              ],
              [
                74.84488527397261,
                29.34798310810811
              ],
              [
                74.84488527397261,
                29.144403716216218
              ],
              [
                74.64153767123288,
                28.986064189189193
              ],
              [
                74.49628938356165,
                28.918204391891894
              ],
              [
                74.26389212328768,
                28.89558445945946
              ],
              [
                74.0895941780822,
                28.737244932432432
              ],
              [
                73.9733955479452,
                28.556285472972974
              ],
              [
                73.85719691780822,
                28.284846283783786
              ],
              [
                73.74099828767123,
                28.284846283783786
              ],
              [
                73.47955136986302,
                28.03602702702703
              ],
              [
                73.39240239726027,
                27.900307432432434
              ],
              [
                72.89855821917808,
                27.85506756756757
              ],
              [
                72.60806164383563,
                27.764587837837837
              ],
              [
                72.46281335616439,
                27.67410810810811
              ],
              [
                72.25946575342466,
                27.651488175675677
              ],
              [
                72.20136643835616,
                27.809827702702705
              ],
              [
                72.17231678082192,
                27.92292736486487
              ],
              [
                71.99801883561643,
                27.9455472972973
              ],
              [
                71.70752226027398,
                27.9455472972973
              ],
              [
                71.5332243150685,
                27.764587837837837
              ],
              [
                71.38797602739726,
                27.561008445945948
              ],
              [
                71.30082705479452,
                27.357429054054055
              ],
              [
                71.01033047945205,
                27.22170945945946
              ],
              [
                70.74888356164384,
                26.92765033783784
              ],
              [
                70.77793321917808,
                26.65621114864865
              ],
              [
                70.9812808219178,
                26.475251689189193
              ],
              [
                71.4170256849315,
                26.29429222972973
              ],
              [
                71.44607534246576,
                26.113332770270272
              ],
              [
                71.4170256849315,
                25.774033783783786
              ],
              [
                71.82372089041097,
                25.479974662162164
              ],
              [
                72.11421746575343,
                25.479974662162164
              ],
              [
                72.17231678082192,
                25.231155405405406
              ],
              [
                72.31756506849315,
                25.027576013513514
              ],
              [
                72.43376369863014,
                24.846616554054055
              ],
              [
                72.46281335616439,
                24.71089695945946
              ],
              [
                72.63711130136987,
                24.575177364864867
              ],
              [
                72.57901198630137,
                24.394217905405405
              ],
              [
                72.52091267123288,
                24.213258445945947
              ],
              [
                72.3466147260274,
                24.213258445945947
              ],
              [
                72.11421746575343,
                24.303738175675676
              ],
              [
                71.82372089041097,
                24.28111824324324
              ],
              [
                71.44607534246576,
                24.213258445945947
              ],
              [
                71.24272773972604,
                24.032298986486488
              ],
              [
                71.12652910958904,
                24.122778716216217
              ],
              [
                70.74888356164384,
                24.190638513513516
              ],
              [
                70.40028767123287,
                24.235878378378377
              ],
              [
                70.48743664383562,
                24.394217905405405
              ],
              [
                70.57458561643836,
                24.5299375
              ],
              [
                70.71983390410959,
                24.756136824324326
              ],
              [
                70.86508219178083,
                24.86923648648649
              ],
              [
                71.0393801369863,
                25.095435810810812
              ],
              [
                71.0393801369863,
                25.16329560810811
              ],
              [
                71.15557876712329,
                25.27639527027027
              ],
              [
                71.0974794520548,
                25.4347347972973
              ],
              [
                70.92318150684932,
                25.52521452702703
              ],
              [
                70.71983390410959,
                25.660934121621622
              ],
              [
                70.51648630136987,
                25.84189358108108
              ],
              [
                70.37123801369863,
                26.045472972972973
              ],
              [
                70.1678904109589,
                26.226432432432436
              ],
              [
                69.84834417808219,
                26.29429222972973
              ],
              [
                69.76119520547945,
                26.430011824324325
              ],
              [
                69.70309589041096,
                26.65621114864865
              ],
              [
                69.76119520547945,
                26.92765033783784
              ],
              [
                69.93549315068493,
                27.22170945945946
              ],
              [
                70.34218835616439,
                27.561008445945948
              ],
              [
                70.83603253424658,
                27.809827702702705
              ],
              [
                71.30082705479452,
                28.013407094594594
              ],
              [
                71.44607534246576,
                28.194366554054056
              ],
              [
                71.76562157534246,
                28.307466216216216
              ],
              [
                71.93991952054795,
                28.465805743243244
              ],
              [
                72.05611815068494,
                28.624145270270272
              ],
              [
                72.08516780821918,
                28.7824847972973
              ],
              [
                72.37566438356164,
                28.87296452702703
              ],
              [
                72.95665753424657,
                29.099163851351353
              ],
              [
                73.50860102739726,
                29.280123310810815
              ],
              [
                73.91529623287671,
                29.506322635135135
              ],
              [
                74.14769349315068,
                29.596802364864867
              ],
              [
                74.49628938356165,
                29.73252195945946
              ],
              [
                74.67058732876713,
                29.73252195945946
              ],
              [
                74.67058732876713,
                29.619422297297298
              ],
              [
                74.55438869863013,
                29.43846283783784
              ],
              [
                74.67058732876713,
                29.43846283783784
              ],
              [
                74.9029845890411,
                29.43846283783784
              ]
            ]
          ]
        ]
      },
      "properties": {
        "id": 3,
        "zone": "Sandy desert a",
        "code": null
      }
    },
    {
      "type": "Feature",
      "geometry": {
        "type": "MultiPolygon",
        "coordinates": [
          [
            [
              [
                76.44261643835617,
                31.994515202702704
              ],
              [
                76.50071575342466,
                31.881415540540544
              ],
              [
                76.5878647260274,
                31.85879560810811
              ],
              [
                76.41356678082192,
                31.67783614864865
              ],
              [
                76.55881506849315,
                31.429016891891894
              ],
              [
                76.47166609589041,
                31.248057432432436
              ],
              [
                76.35546746575343,
                30.90875844594595
              ],
              [
                76.2102191780822,
                30.72779898648649
              ],
              [
                76.00687157534247,
                30.569459459459463
              ],
              [
                75.7744743150685,
                30.343260135135136
              ],
              [
                75.80352397260275,
                30.09444087837838
              ],
              [
                75.48397773972603,
                30.049201013513517
              ],
              [
                75.25158047945206,
                29.868241554054055
              ],
              [
                75.10633219178082,
                29.73252195945946
              ],
              [
                75.01918321917809,
                29.43846283783784
              ],
              [
                75.01918321917809,
                29.43846283783784
              ],
              [
                74.93203424657534,
                29.393222972972975
              ],
              [
                74.75773630136986,
                29.393222972972975
              ],
              [
                74.55438869863013,
                29.41584290540541
              ],
              [
                74.55438869863013,
                29.483702702702704
              ],
              [
                74.61248801369864,
                29.574182432432433
              ],
              [
                74.67058732876713,
                29.709902027027027
              ],
              [
                74.40914041095891,
                29.709902027027027
              ],
              [
                74.20579280821919,
                29.551562500000003
              ],
              [
                73.9733955479452,
                29.506322635135135
              ],
              [
                74.20579280821919,
                29.52894256756757
              ],
              [
                73.85719691780822,
                29.37060304054054
              ],
              [
                73.27620376712329,
                29.144403716216218
              ],
              [
                72.7823595890411,
                29.008684121621624
              ],
              [
                72.46281335616439,
                28.87296452702703
              ],
              [
                72.23041609589042,
                28.827724662162165
              ],
              [
                72.05611815068494,
                28.737244932432432
              ],
              [
                71.79467123287671,
                28.96344425675676
              ],
              [
                71.85277054794521,
                28.986064189189193
              ],
              [
                71.99801883561643,
                29.25750337837838
              ],
              [
                72.0270684931507,
                29.642042229729732
              ],
              [
                72.11421746575343,
                30.00396114864865
              ],
              [
                72.23041609589042,
                30.162300675675677
              ],
              [
                72.23041609589042,
                30.343260135135136
              ],
              [
                72.17231678082192,
                30.54683952702703
              ],
              [
                72.20136643835616,
                30.75041891891892
              ],
              [
                72.28851541095891,
                30.72779898648649
              ],
              [
                72.4047140410959,
                30.682559121621622
              ],
              [
                72.46281335616439,
                30.614699324324327
              ],
              [
                72.57901198630137,
                30.456359797297303
              ],
              [
                72.69521061643836,
                30.29802027027027
              ],
              [
                72.69521061643836,
                30.162300675675677
              ],
              [
                72.81140924657535,
                30.162300675675677
              ],
              [
                73.18905479452056,
                30.43373986486487
              ],
              [
                73.30525342465754,
                30.659939189189192
              ],
              [
                73.39240239726027,
                31.02185810810811
              ],
              [
                73.50860102739726,
                31.112337837837842
              ],
              [
                73.74099828767123,
                31.2932972972973
              ],
              [
                73.85719691780822,
                31.56473648648649
              ],
              [
                74.11864383561644,
                31.94927533783784
              ],
              [
                74.00244520547946,
                32.08499493243244
              ],
              [
                73.74099828767123,
                32.15285472972973
              ],
              [
                73.62479965753425,
                32.28857432432433
              ],
              [
                74.29294178082192,
                32.49215371621622
              ],
              [
                75.04823287671233,
                32.56001351351352
              ],
              [
                75.62922602739727,
                32.37905405405406
              ],
              [
                76.12307020547945,
                32.175474662162166
              ],
              [
                76.44261643835617,
                31.994515202702704
              ]
            ]
          ]
        ]
      },
      "properties": {
        "id": 4,
        "zone": "Northern irrigated plain",
        "code": null
      }
    },
    {
      "type": "Feature",
      "geometry": {
        "type": "MultiPolygon",
        "coordinates": [
          [
            [
              [
                76.12307020547945,
                35.41012500000001
              ],
              [
                76.29736815068493,
                35.50060472972973
              ],
              [
                76.38451712328768,
                35.45536486486487
              ],
              [
                76.38451712328768,
                35.387505067567574
              ],
              [
                76.32641780821919,
                35.251785472972976
              ],
              [
                76.29736815068493,
                35.16130574324325
              ],
              [
                76.15211986301371,
                35.00296621621622
              ],
              [
                75.8906729452055,
                34.98034628378379
              ],
              [
                75.80352397260275,
                34.88986655405406
              ],
              [
                75.54207705479452,
                34.84462668918919
              ],
              [
                75.42587842465754,
                34.7089070945946
              ],
              [
                75.16443150684933,
                34.346988175675676
              ],
              [
                75.13538184931507,
                34.18864864864865
              ],
              [
                75.13538184931507,
                33.98506925675676
              ],
              [
                75.07728253424658,
                33.71363006756757
              ],
              [
                75.25158047945206,
                33.66839020270271
              ],
              [
                75.36777910958905,
                33.51005067567568
              ],
              [
                75.25158047945206,
                33.41957094594595
              ],
              [
                74.93203424657534,
                33.60053040540541
              ],
              [
                74.81583561643836,
                33.736250000000005
              ],
              [
                74.67058732876713,
                33.84934966216217
              ],
              [
                74.4672397260274,
                33.9398293918919
              ],
              [
                74.32199143835616,
                34.09816891891892
              ],
              [
                74.0895941780822,
                34.18864864864865
              ],
              [
                73.82814726027398,
                34.23388851351352
              ],
              [
                73.74099828767123,
                34.346988175675676
              ],
              [
                73.74099828767123,
                34.46008783783784
              ],
              [
                74.0895941780822,
                34.79938682432433
              ],
              [
                74.52533904109589,
                35.11606587837838
              ],
              [
                75.01918321917809,
                35.27440540540541
              ],
              [
                75.30967979452055,
                35.387505067567574
              ],
              [
                75.83257363013699,
                35.41012500000001
              ],
              [
                76.12307020547945,
                35.41012500000001
              ]
            ]
          ]
        ]
      },
      "properties": {
        "id": 6,
        "zone": "Wet mountains",
        "code": null
      }
    },
    {
      "type": "Feature",
      "geometry": {
        "type": "MultiPolygon",
        "coordinates": [
          [
            [
              [
                77.69175171232877,
                36.20182263513514
              ],
              [
                77.7789006849315,
                36.3827820945946
              ],
              [
                77.7789006849315,
                36.337542229729735
              ],
              [
                77.7789006849315,
                36.22444256756757
              ],
              [
                77.837,
                36.13396283783784
              ],
              [
                77.74985102739726,
                36.11134290540541
              ],
              [
                77.63365239726028,
                36.11134290540541
              ],
              [
                77.43030479452055,
                36.11134290540541
              ],
              [
                77.22695719178083,
                36.06610304054055
              ],
              [
                77.05265924657535,
                35.998243243243245
              ],
              [
                76.82026198630138,
                35.907763513513515
              ],
              [
                76.6459640410959,
                35.74942398648649
              ],
              [
                76.50071575342466,
                35.70418412162162
              ],
              [
                76.38451712328768,
                35.523224662162164
              ],
              [
                76.15211986301371,
                35.41012500000001
              ],
              [
                75.80352397260275,
                35.41012500000001
              ],
              [
                75.51302739726027,
                35.387505067567574
              ],
              [
                75.2806301369863,
                35.36488513513514
              ],
              [
                75.13538184931507,
                35.251785472972976
              ],
              [
                74.69963698630137,
                35.13868581081081
              ],
              [
                74.43819006849316,
                35.07082601351352
              ],
              [
                74.0314948630137,
                34.88986655405406
              ],
              [
                73.85719691780822,
                34.61842736486487
              ],
              [
                73.77004794520548,
                34.36960810810811
              ],
              [
                73.56670034246577,
                34.32436824324325
              ],
              [
                73.50860102739726,
                34.301748310810815
              ],
              [
                73.39240239726027,
                34.23388851351352
              ],
              [
                73.2181044520548,
                34.09816891891892
              ],
              [
                73.1600051369863,
                34.03030912162163
              ],
              [
                72.92760787671233,
                33.98506925675676
              ],
              [
                72.8404589041096,
                33.917209459459464
              ],
              [
                72.81140924657535,
                33.826729729729735
              ],
              [
                72.86950856164384,
                33.645770270270276
              ],
              [
                72.81140924657535,
                33.55529054054054
              ],
              [
                72.60806164383563,
                33.487430743243245
              ],
              [
                72.46281335616439,
                33.46481081081081
              ],
              [
                72.31756506849315,
                33.41957094594595
              ],
              [
                72.17231678082192,
                33.41957094594595
              ],
              [
                72.11421746575343,
                33.487430743243245
              ],
              [
                72.08516780821918,
                33.55529054054054
              ],
              [
                72.0270684931507,
                33.69101013513514
              ],
              [
                71.99801883561643,
                33.84934966216217
              ],
              [
                72.05611815068494,
                33.89458952702703
              ],
              [
                72.49186301369863,
                33.9398293918919
              ],
              [
                72.57901198630137,
                34.05292905405406
              ],
              [
                72.60806164383563,
                34.301748310810815
              ],
              [
                72.46281335616439,
                34.482707770270274
              ],
              [
                72.66616095890411,
                34.6410472972973
              ],
              [
                72.86950856164384,
                34.84462668918919
              ],
              [
                73.07285616438357,
                35.02558614864865
              ],
              [
                73.07285616438357,
                35.18392567567568
              ],
              [
                73.10190582191781,
                35.4779847972973
              ],
              [
                72.92760787671233,
                35.79466385135135
              ],
              [
                72.69521061643836,
                36.06610304054055
              ],
              [
                72.86950856164384,
                36.29230236486487
              ],
              [
                73.27620376712329,
                36.3827820945946
              ],
              [
                73.50860102739726,
                36.51850168918919
              ],
              [
                73.85719691780822,
                36.78994087837838
              ],
              [
                74.32199143835616,
                36.857800675675676
              ],
              [
                74.99013356164384,
                36.92566047297298
              ],
              [
                74.99013356164384,
                36.92566047297298
              ],
              [
                75.7744743150685,
                36.92566047297298
              ],
              [
                76.35546746575343,
                37.084
              ],
              [
                76.87836130136986,
                37.01614020270271
              ],
              [
                77.11075856164385,
                36.88042060810811
              ],
              [
                77.4593544520548,
                36.83518074324324
              ],
              [
                77.72080136986301,
                36.51850168918919
              ],
              [
                77.69175171232877,
                36.20182263513514
              ],
              [
                77.69175171232877,
                36.20182263513514
              ]
            ]
          ]
        ]
      },
      "properties": {
        "id": 7,
        "zone": "Northern dry mountains",
        "code": null
      }
    },
    {
      "type": "Feature",
      "geometry": {
        "type": "MultiPolygon",
        "coordinates": [
          [
            [
              [
                71.99801883561643,
                33.84934966216217
              ],
              [
                71.96896917808219,
                33.871969594594596
              ],
              [
                71.99801883561643,
                33.84934966216217
              ],
              [
                71.99801883561643,
                33.8041097972973
              ],
              [
                72.05611815068494,
                33.736250000000005
              ],
              [
                72.05611815068494,
                33.645770270270276
              ],
              [
                72.08516780821918,
                33.577910472972974
              ],
              [
                72.11421746575343,
                33.487430743243245
              ],
              [
                72.28851541095891,
                33.44219087837838
              ],
              [
                72.52091267123288,
                33.46481081081081
              ],
              [
                72.69521061643836,
                33.487430743243245
              ],
              [
                72.7823595890411,
                33.55529054054054
              ],
              [
                72.95665753424657,
                33.577910472972974
              ],
              [
                73.2181044520548,
                33.55529054054054
              ],
              [
                73.39240239726027,
                33.577910472972974
              ],
              [
                73.68289897260274,
                33.60053040540541
              ],
              [
                73.74099828767123,
                33.577910472972974
              ],
              [
                73.71194863013699,
                33.487430743243245
              ],
              [
                73.59575000000001,
                33.306471283783786
              ],
              [
                73.50860102739726,
                33.23861148648649
              ],
              [
                73.47955136986302,
                33.23861148648649
              ],
              [
                73.45050171232877,
                33.14813175675676
              ],
              [
                73.36335273972603,
                33.0350320945946
              ],
              [
                73.33430308219178,
                32.94455236486487
              ],
              [
                73.2181044520548,
                32.8993125
              ],
              [
                73.07285616438357,
                32.85407263513514
              ],
              [
                72.89855821917808,
                32.7635929054054
              ],
              [
                72.7823595890411,
                32.71835304054054
              ],
              [
                72.66616095890411,
                32.582633445945945
              ],
              [
                72.57901198630137,
                32.56001351351352
              ],
              [
                72.57901198630137,
                32.71835304054054
              ],
              [
                72.57901198630137,
                32.786212837837844
              ],
              [
                72.49186301369863,
                32.831452702702705
              ],
              [
                72.4047140410959,
                32.85407263513514
              ],
              [
                72.31756506849315,
                32.8993125
              ],
              [
                72.20136643835616,
                32.8993125
              ],
              [
                72.14326712328767,
                32.921932432432435
              ],
              [
                72.05611815068494,
                32.85407263513514
              ],
              [
                71.96896917808219,
                32.7635929054054
              ],
              [
                71.96896917808219,
                32.740972972972976
              ],
              [
                71.85277054794521,
                32.65049324324325
              ],
              [
                71.79467123287671,
                32.46953378378379
              ],
              [
                71.79467123287671,
                32.42429391891892
              ],
              [
                71.67847260273973,
                32.42429391891892
              ],
              [
                71.59132363013698,
                32.356434121621625
              ],
              [
                71.59132363013698,
                32.22071452702703
              ],
              [
                71.59132363013698,
                32.062375
              ],
              [
                71.64942294520549,
                31.971895270270274
              ],
              [
                71.73657191780822,
                31.94927533783784
              ],
              [
                71.67847260273973,
                31.90403547297298
              ],
              [
                71.56227397260274,
                31.76831587837838
              ],
              [
                71.475125,
                31.587356418918922
              ],
              [
                71.475125,
                31.45163682432433
              ],
              [
                71.5332243150685,
                31.248057432432436
              ],
              [
                71.5332243150685,
                31.134957770270272
              ],
              [
                71.59132363013698,
                30.953998310810814
              ],
              [
                71.64942294520549,
                30.886138513513515
              ],
              [
                71.70752226027398,
                30.77303885135135
              ],
              [
                71.70752226027398,
                30.592079391891893
              ],
              [
                71.79467123287671,
                30.501599662162164
              ],
              [
                71.70752226027398,
                30.320640202702705
              ],
              [
                71.67847260273973,
                30.230160472972976
              ],
              [
                71.64942294520549,
                30.139680743243247
              ],
              [
                71.5332243150685,
                29.958721283783788
              ],
              [
                71.4170256849315,
                29.868241554054055
              ],
              [
                71.30082705479452,
                29.777761824324326
              ],
              [
                71.30082705479452,
                29.687282094594597
              ],
              [
                71.30082705479452,
                29.506322635135135
              ],
              [
                71.35892636986301,
                29.483702702702708
              ],
              [
                71.4170256849315,
                29.393222972972975
              ],
              [
                71.30082705479452,
                29.325363175675676
              ],
              [
                71.24272773972604,
                29.234883445945947
              ],
              [
                71.18462842465753,
                29.076543918918922
              ],
              [
                71.06842979452055,
                28.986064189189193
              ],
              [
                71.0393801369863,
                28.87296452702703
              ],
              [
                70.83603253424658,
                28.7824847972973
              ],
              [
                70.63268493150686,
                28.69200506756757
              ],
              [
                70.51648630136987,
                28.714625
              ],
              [
                70.31313869863014,
                28.7824847972973
              ],
              [
                70.05169178082193,
                28.7824847972973
              ],
              [
                69.7902448630137,
                28.80510472972973
              ],
              [
                69.58689726027397,
                28.80510472972973
              ],
              [
                69.52879794520548,
                28.87296452702703
              ],
              [
                69.44164897260274,
                28.96344425675676
              ],
              [
                69.52879794520548,
                29.008684121621624
              ],
              [
                69.61594691780822,
                29.076543918918922
              ],
              [
                69.52879794520548,
                29.144403716216218
              ],
              [
                69.44164897260274,
                29.302743243243246
              ],
              [
                69.38354965753425,
                29.41584290540541
              ],
              [
                69.32545034246576,
                29.506322635135135
              ],
              [
                69.29640068493151,
                29.596802364864867
              ],
              [
                69.20925171232876,
                29.642042229729732
              ],
              [
                69.00590410958904,
                29.664662162162166
              ],
              [
                68.86065582191782,
                29.642042229729732
              ],
              [
                68.65730821917809,
                29.642042229729732
              ],
              [
                68.5411095890411,
                29.551562500000003
              ],
              [
                68.51205993150685,
                29.506322635135135
              ],
              [
                68.39586130136986,
                29.506322635135135
              ],
              [
                68.39586130136986,
                29.461082770270274
              ],
              [
                68.4249109589041,
                29.325363175675676
              ],
              [
                68.48301027397261,
                29.234883445945947
              ],
              [
                68.48301027397261,
                29.076543918918922
              ],
              [
                68.39586130136986,
                28.918204391891894
              ],
              [
                68.39586130136986,
                28.714625
              ],
              [
                68.36681164383562,
                28.578905405405408
              ],
              [
                68.27966267123288,
                28.39794594594595
              ],
              [
                68.27966267123288,
                28.307466216216216
              ],
              [
                68.30871232876713,
                28.081266891891893
              ],
              [
                68.4249109589041,
                27.9455472972973
              ],
              [
                68.51205993150685,
                27.8776875
              ],
              [
                68.33776198630137,
                27.67410810810811
              ],
              [
                68.27966267123288,
                27.515768581081083
              ],
              [
                68.19251369863014,
                27.31218918918919
              ],
              [
                68.16346404109589,
                27.244329391891892
              ],
              [
                67.93106678082192,
                27.244329391891892
              ],
              [
                67.75676883561644,
                27.131229729729732
              ],
              [
                67.75676883561644,
                27.040750000000003
              ],
              [
                67.64057020547945,
                26.92765033783784
              ],
              [
                67.43722260273972,
                26.90503040540541
              ],
              [
                67.233875,
                26.83717060810811
              ],
              [
                67.00147773972603,
                26.83717060810811
              ],
              [
                66.88527910958904,
                26.791930743243245
              ],
              [
                66.76908047945206,
                26.972890202702704
              ],
              [
                66.68193150684931,
                27.131229729729732
              ],
              [
                66.65288184931507,
                27.289569256756756
              ],
              [
                66.56573287671233,
                27.515768581081083
              ],
              [
                66.56573287671233,
                27.696728040540542
              ],
              [
                66.68193150684931,
                27.85506756756757
              ],
              [
                66.74003082191781,
                28.05864695945946
              ],
              [
                66.76908047945206,
                28.239606418918918
              ],
              [
                66.88527910958904,
                28.42056587837838
              ],
              [
                66.94337842465754,
                28.60152533783784
              ],
              [
                66.9143287671233,
                28.759864864864866
              ],
              [
                67.00147773972603,
                28.87296452702703
              ],
              [
                67.03052739726027,
                29.031304054054054
              ],
              [
                66.94337842465754,
                29.189643581081086
              ],
              [
                67.00147773972603,
                29.302743243243246
              ],
              [
                67.11767636986302,
                29.41584290540541
              ],
              [
                67.17577568493151,
                29.596802364864867
              ],
              [
                67.11767636986302,
                29.777761824324326
              ],
              [
                67.11767636986302,
                29.868241554054055
              ],
              [
                67.11767636986302,
                30.139680743243247
              ],
              [
                67.17577568493151,
                30.29802027027027
              ],
              [
                67.17577568493151,
                30.411119932432435
              ],
              [
                67.14672602739726,
                30.592079391891893
              ],
              [
                67.32102397260275,
                30.795658783783786
              ],
              [
                67.6115205479452,
                30.953998310810814
              ],
              [
                67.7277191780822,
                31.089717905405408
              ],
              [
                67.93106678082192,
                31.157577702702703
              ],
              [
                68.13441438356165,
                31.134957770270272
              ],
              [
                68.48301027397261,
                31.089717905405408
              ],
              [
                68.74445719178082,
                31.180197635135137
              ],
              [
                68.86065582191782,
                31.31591722972973
              ],
              [
                68.83160616438356,
                31.47425675675676
              ],
              [
                69.00590410958904,
                31.496876689189193
              ],
              [
                69.3545,
                31.655216216216218
              ],
              [
                69.67404623287672,
                31.67783614864865
              ],
              [
                69.99359246575342,
                31.587356418918922
              ],
              [
                70.31313869863014,
                31.587356418918922
              ],
              [
                70.54553595890411,
                31.85879560810811
              ],
              [
                70.54553595890411,
                32.03975506756757
              ],
              [
                70.6036352739726,
                32.401673986486486
              ],
              [
                70.71983390410959,
                32.46953378378379
              ],
              [
                70.71983390410959,
                32.67311317567568
              ],
              [
                70.83603253424658,
                32.8993125
              ],
              [
                71.06842979452055,
                33.0350320945946
              ],
              [
                71.24272773972604,
                33.0350320945946
              ],
              [
                71.475125,
                33.10289189189189
              ],
              [
                71.67847260273973,
                33.28385135135136
              ],
              [
                71.62037328767124,
                33.37433108108108
              ],
              [
                71.5332243150685,
                33.51005067567568
              ],
              [
                71.44607534246576,
                33.66839020270271
              ],
              [
                71.21367808219179,
                33.8041097972973
              ],
              [
                71.24272773972604,
                33.9398293918919
              ],
              [
                71.475125,
                33.89458952702703
              ],
              [
                71.70752226027398,
                33.84934966216217
              ],
              [
                71.99801883561643,
                33.84934966216217
              ]
            ]
          ]
        ]
      },
      "properties": {
        "id": 8,
        "zone": "Western dry mountains",
        "code": null
      }
    },
    {
      "type": "Feature",
      "geometry": {
        "type": "MultiPolygon",
        "coordinates": [
          [
            [
              [
                67.11767636986302,
                29.73252195945946
              ],
              [
                67.08862671232878,
                29.73252195945946
              ],
              [
                67.17577568493151,
                29.73252195945946
              ],
              [
                67.17577568493151,
                29.642042229729732
              ],
              [
                67.14672602739726,
                29.506322635135135
              ],
              [
                67.11767636986302,
                29.461082770270274
              ],
              [
                67.00147773972603,
                29.280123310810815
              ],
              [
                66.94337842465754,
                29.189643581081086
              ],
              [
                67.08862671232878,
                29.008684121621624
              ],
              [
                67.05957705479452,
                28.850344594594596
              ],
              [
                67.00147773972603,
                28.69200506756757
              ],
              [
                66.97242808219178,
                28.60152533783784
              ],
              [
                66.94337842465754,
                28.48842567567568
              ],
              [
                66.88527910958904,
                28.35270608108108
              ],
              [
                66.7981301369863,
                28.21698648648649
              ],
              [
                66.76908047945206,
                28.149126689189192
              ],
              [
                66.76908047945206,
                28.013407094594594
              ],
              [
                66.76908047945206,
                27.8776875
              ],
              [
                66.71098116438357,
                27.832447635135136
              ],
              [
                66.65288184931507,
                27.651488175675677
              ],
              [
                66.56573287671233,
                27.58362837837838
              ],
              [
                66.62383219178082,
                27.40266891891892
              ],
              [
                66.65288184931507,
                27.289569256756756
              ],
              [
                66.74003082191781,
                27.108609797297298
              ],
              [
                66.7981301369863,
                26.92765033783784
              ],
              [
                66.88527910958904,
                26.83717060810811
              ],
              [
                67.00147773972603,
                26.814550675675676
              ],
              [
                67.20482534246575,
                26.882410472972975
              ],
              [
                67.35007363013699,
                26.92765033783784
              ],
              [
                67.58247089041096,
                26.950270270270273
              ],
              [
                67.7277191780822,
                26.950270270270273
              ],
              [
                67.7277191780822,
                27.040750000000003
              ],
              [
                67.81486815068493,
                27.108609797297298
              ],
              [
                67.93106678082192,
                27.199089527027027
              ],
              [
                68.0472654109589,
                27.22170945945946
              ],
              [
                68.25061301369863,
                27.22170945945946
              ],
              [
                68.27966267123288,
                27.176469594594597
              ],
              [
                68.27966267123288,
                27.085989864864867
              ],
              [
                68.25061301369863,
                26.92765033783784
              ],
              [
                68.19251369863014,
                26.83717060810811
              ],
              [
                68.19251369863014,
                26.65621114864865
              ],
              [
                68.25061301369863,
                26.520491554054054
              ],
              [
                68.39586130136986,
                26.339532094594595
              ],
              [
                68.5411095890411,
                26.31691216216216
              ],
              [
                68.74445719178082,
                26.2038125
              ],
              [
                68.86065582191782,
                26.113332770270272
              ],
              [
                68.88970547945206,
                25.954993243243244
              ],
              [
                68.9768544520548,
                25.88713344594595
              ],
              [
                69.09305308219179,
                25.84189358108108
              ],
              [
                69.23830136986302,
                25.774033783783786
              ],
              [
                69.29640068493151,
                25.683554054054056
              ],
              [
                69.29640068493151,
                25.570454391891893
              ],
              [
                69.29640068493151,
                25.479974662162164
              ],
              [
                69.20925171232876,
                25.34425506756757
              ],
              [
                69.09305308219179,
                25.27639527027027
              ],
              [
                68.9768544520548,
                25.27639527027027
              ],
              [
                68.9768544520548,
                25.208535472972976
              ],
              [
                68.74445719178082,
                25.027576013513514
              ],
              [
                68.48301027397261,
                24.89185641891892
              ],
              [
                68.16346404109589,
                24.778756756756756
              ],
              [
                67.98916609589041,
                24.756136824324326
              ],
              [
                67.84391780821917,
                24.756136824324326
              ],
              [
                67.69866952054795,
                24.756136824324326
              ],
              [
                67.49532191780823,
                24.82399662162162
              ],
              [
                67.46627226027397,
                24.95971621621622
              ],
              [
                67.40817294520548,
                25.095435810810812
              ],
              [
                67.35007363013699,
                25.18591554054054
              ],
              [
                67.35007363013699,
                25.321635135135136
              ],
              [
                67.20482534246575,
                25.502594594594594
              ],
              [
                67.00147773972603,
                25.52521452702703
              ],
              [
                66.7981301369863,
                25.479974662162164
              ],
              [
                66.76908047945206,
                25.321635135135136
              ],
              [
                66.50763356164384,
                25.321635135135136
              ],
              [
                66.24618664383561,
                25.366875
              ],
              [
                66.07188869863013,
                25.208535472972976
              ],
              [
                65.78139212328767,
                25.299015202702705
              ],
              [
                65.60709417808219,
                25.140675675675677
              ],
              [
                65.43279623287671,
                25.140675675675677
              ],
              [
                65.22944863013699,
                25.095435810810812
              ],
              [
                64.85180308219178,
                25.208535472972976
              ],
              [
                64.44510787671233,
                25.18591554054054
              ],
              [
                64.21271061643836,
                25.253775337837837
              ],
              [
                63.98031335616438,
                25.253775337837837
              ],
              [
                63.776965753424655,
                25.208535472972976
              ],
              [
                63.4283698630137,
                25.208535472972976
              ],
              [
                63.16692294520548,
                25.208535472972976
              ],
              [
                62.96357534246575,
                25.118055743243243
              ],
              [
                62.90547602739726,
                25.027576013513514
              ],
              [
                62.76022773972603,
                24.95971621621622
              ],
              [
                62.5568801369863,
                25.027576013513514
              ],
              [
                62.266383561643835,
                25.118055743243243
              ],
              [
                62.15018493150685,
                25.231155405405406
              ],
              [
                61.97588698630137,
                25.253775337837837
              ],
              [
                61.88873801369863,
                25.140675675675677
              ],
              [
                61.7434897260274,
                25.07281587837838
              ],
              [
                61.54014212328767,
                25.07281587837838
              ],
              [
                61.36584417808219,
                25.231155405405406
              ],
              [
                61.42394349315069,
                25.457354729729733
              ],
              [
                61.45299315068493,
                25.660934121621622
              ],
              [
                61.48204280821918,
                25.72879391891892
              ],
              [
                61.65634075342466,
                25.954993243243244
              ],
              [
                61.71444006849315,
                26.29429222972973
              ],
              [
                61.88873801369863,
                26.339532094594595
              ],
              [
                62.121135273972605,
                26.226432432432436
              ],
              [
                62.266383561643835,
                26.520491554054054
              ],
              [
                62.440681506849316,
                26.588351351351353
              ],
              [
                63.3702705479452,
                26.633591216216217
              ],
              [
                63.4283698630137,
                26.90503040540541
              ],
              [
                63.457419520547944,
                27.22170945945946
              ],
              [
                63.3702705479452,
                27.266949324324326
              ],
              [
                63.07977397260274,
                27.244329391891895
              ],
              [
                62.93452568493151,
                27.31218918918919
              ],
              [
                62.93452568493151,
                27.425288851351354
              ],
              [
                62.96357534246575,
                28.013407094594594
              ],
              [
                62.992625000000004,
                28.23960641891892
              ],
              [
                62.87642636986301,
                28.375326013513515
              ],
              [
                62.440681506849316,
                28.465805743243244
              ],
              [
                62.00493664383562,
                28.646765202702703
              ],
              [
                61.65634075342466,
                29.031304054054054
              ],
              [
                60.872,
                29.89086148648649
              ],
              [
                61.162496575342466,
                29.91348141891892
              ],
              [
                62.70212842465753,
                29.43846283783784
              ],
              [
                63.631717465753425,
                29.551562500000003
              ],
              [
                64.2417602739726,
                29.461082770270274
              ],
              [
                64.56130650684932,
                29.461082770270274
              ],
              [
                64.76465410958905,
                29.506322635135135
              ],
              [
                64.90990239726027,
                29.551562500000003
              ],
              [
                65.81044178082192,
                29.43846283783784
              ],
              [
                66.53668321917809,
                29.664662162162166
              ],
              [
                67.11767636986302,
                29.73252195945946
              ]
            ]
          ]
        ]
      },
      "properties": {
        "id": 9,
        "zone": "Dry western plateau",
        "code": null
      }
    },
    {
      "type": "Feature",
      "geometry": {
        "type": "MultiPolygon",
        "coordinates": [
          [
            [
              [
                73.50860102739726,
                32.31119425675676
              ],
              [
                73.33430308219178,
                32.28857432432433
              ],
              [
                73.45050171232877,
                32.31119425675676
              ],
              [
                73.59575000000001,
                32.31119425675676
              ],
              [
                73.6538493150685,
                32.28857432432433
              ],
              [
                73.74099828767123,
                32.175474662162166
              ],
              [
                73.74099828767123,
                32.10761486486487
              ],
              [
                73.85719691780822,
                32.08499493243244
              ],
              [
                73.9733955479452,
                32.062375
              ],
              [
                74.06054452054795,
                32.017135135135135
              ],
              [
                74.06054452054795,
                31.926655405405405
              ],
              [
                74.00244520547946,
                31.85879560810811
              ],
              [
                73.94434589041096,
                31.76831587837838
              ],
              [
                73.85719691780822,
                31.700456081081086
              ],
              [
                73.79909760273972,
                31.519496621621624
              ],
              [
                73.74099828767123,
                31.406396959459464
              ],
              [
                73.71194863013699,
                31.248057432432436
              ],
              [
                73.62479965753425,
                31.157577702702703
              ],
              [
                73.50860102739726,
                31.089717905405408
              ],
              [
                73.39240239726027,
                30.99923817567568
              ],
              [
                73.33430308219178,
                30.84089864864865
              ],
              [
                73.30525342465754,
                30.72779898648649
              ],
              [
                73.27620376712329,
                30.614699324324327
              ],
              [
                73.1600051369863,
                30.456359797297303
              ],
              [
                72.95665753424657,
                30.320640202702705
              ],
              [
                72.81140924657535,
                30.207540540540542
              ],
              [
                72.69521061643836,
                30.18492060810811
              ],
              [
                72.60806164383563,
                30.320640202702705
              ],
              [
                72.49186301369863,
                30.54683952702703
              ],
              [
                72.4047140410959,
                30.637319256756758
              ],
              [
                72.28851541095891,
                30.72779898648649
              ],
              [
                72.17231678082192,
                30.72779898648649
              ],
              [
                72.17231678082192,
                30.90875844594595
              ],
              [
                72.23041609589042,
                31.067097972972977
              ],
              [
                72.23041609589042,
                31.180197635135137
              ],
              [
                72.28851541095891,
                31.361157094594596
              ],
              [
                72.28851541095891,
                31.45163682432433
              ],
              [
                72.28851541095891,
                31.632596283783787
              ],
              [
                72.31756506849315,
                31.76831587837838
              ],
              [
                72.31756506849315,
                31.813555743243246
              ],
              [
                72.43376369863014,
                31.813555743243246
              ],
              [
                72.23041609589042,
                31.609976351351353
              ],
              [
                72.3466147260274,
                31.790935810810815
              ],
              [
                72.4047140410959,
                31.813555743243246
              ],
              [
                72.69521061643836,
                31.94927533783784
              ],
              [
                73.01475684931506,
                32.10761486486487
              ],
              [
                73.27620376712329,
                32.31119425675676
              ],
              [
                73.50860102739726,
                32.31119425675676
              ]
            ]
          ]
        ]
      },
      "properties": {
        "id": 33,
        "zone": "sandy desert b",
        "code": null
      }
    },
    {
      "type": "Feature",
      "geometry": {
        "type": "MultiPolygon",
        "coordinates": [
          [
            [
              [
                73.74099828767123,
                34.346988175675676
              ],
              [
                73.50860102739726,
                34.346988175675676
              ],
              [
                73.6538493150685,
                34.36960810810811
              ],
              [
                73.74099828767123,
                34.32436824324325
              ],
              [
                73.79909760273972,
                34.256508445945954
              ],
              [
                73.85719691780822,
                34.211268581081086
              ],
              [
                74.0895941780822,
                34.211268581081086
              ],
              [
                74.26389212328768,
                34.16602871621622
              ],
              [
                74.32199143835616,
                34.09816891891892
              ],
              [
                74.4672397260274,
                34.00768918918919
              ],
              [
                74.61248801369864,
                33.871969594594596
              ],
              [
                74.55438869863013,
                33.84934966216217
              ],
              [
                74.4672397260274,
                33.78148986486487
              ],
              [
                74.38009075342467,
                33.75886993243243
              ],
              [
                74.20579280821919,
                33.645770270270276
              ],
              [
                74.11864383561644,
                33.62315033783784
              ],
              [
                73.9733955479452,
                33.62315033783784
              ],
              [
                73.88624657534247,
                33.62315033783784
              ],
              [
                73.74099828767123,
                33.62315033783784
              ],
              [
                73.47955136986302,
                33.645770270270276
              ],
              [
                73.27620376712329,
                33.62315033783784
              ],
              [
                73.13095547945206,
                33.60053040540541
              ],
              [
                72.95665753424657,
                33.577910472972974
              ],
              [
                72.8404589041096,
                33.55529054054054
              ],
              [
                72.81140924657535,
                33.62315033783784
              ],
              [
                72.81140924657535,
                33.78148986486487
              ],
              [
                72.81140924657535,
                33.89458952702703
              ],
              [
                72.86950856164384,
                33.962449324324325
              ],
              [
                72.98570719178082,
                33.98506925675676
              ],
              [
                73.10190582191781,
                34.03030912162163
              ],
              [
                73.27620376712329,
                34.143408783783784
              ],
              [
                73.39240239726027,
                34.211268581081086
              ],
              [
                73.45050171232877,
                34.301748310810815
              ],
              [
                73.56670034246577,
                34.346988175675676
              ],
              [
                73.74099828767123,
                34.346988175675676
              ]
            ]
          ]
        ]
      },
      "properties": {
        "id": 44,
        "zone": "Northern irrigated plain b",
        "code": null
      }
    }
  ]
}