{
"type": "FeatureCollection",
"name": "new_zones_data",
"crs": { "type": "name", "properties": { "name": "urn:ogc:def:crs:OGC:1.3:CRS84" } },
"features": [
{ "type": "Feature", "properties": { "id": 5, "zone": "Barani lands", "code": null }, "geometry": { "type": "MultiPolygon", "coordinates": [ [ [ [ 373.950602409638464, -162.476656626506326 ], [ 347.004819277108311, -143.61460843373527 ], [ 299.849698795180643, -154.392921686747314 ], [ 274.251204819277007, -168.53945783132562 ], [ 260.778313253011959, -163.823945783132842 ], [ 262.799246987951733, -149.677409638554536 ], [ 274.251204819277007, -136.204518072289488 ], [ 284.355873493975821, -137.551807228915976 ], [ 285.703162650602337, -144.961897590361758 ], [ 293.113253012048119, -139.57274096385575 ], [ 302.544277108433619, -132.16265060240994 ], [ 308.607078313252885, -124.078915662650914 ], [ 313.322590361445691, -113.974246987952128 ], [ 324.100903614457707, -111.953313253012368 ], [ 330.837349397590287, -106.564156626506346 ], [ 338.24743975903607, -107.911445783132848 ], [ 340.942018072289045, -113.30060240963887 ], [ 347.004819277108311, -118.689759036144892 ], [ 346.331174698795053, -126.773493975903932 ], [ 351.046686746987859, -132.836295180723198 ], [ 363.172289156626448, -134.857228915662972 ], [ 375.29789156626498, -142.940963855422012 ], [ 380.687048192770931, -147.656475903614762 ], [ 392.812650602409576, -148.33012048192802 ], [ 392.812650602409576, -151.024698795181052 ], [ 390.791716867469745, -156.41385542168706 ], [ 380.013403614457729, -161.803012048193096 ], [ 376.645180722891496, -163.150301204819584 ], [ 373.950602409638464, -162.476656626506326 ] ] ] ] } },
{ "type": "Feature", "properties": { "id": 10, "zone": "Sulaiman piedmont", "code": null }, "geometry": { "type": "MultiPolygon", "coordinates": [ [ [ [ 277.619427710843297, -167.865813253012362 ], [ 276.945783132530039, -167.192168674699104 ], [ 278.293072289156555, -169.886746987952137 ], [ 276.945783132530039, -188.075150602409963 ], [ 276.272138554216781, -198.179819277108749 ], [ 276.945783132530039, -208.284487951807535 ], [ 276.945783132530039, -216.368222891566575 ], [ 274.924849397590265, -225.799246987952131 ], [ 273.577560240963749, -235.903915662650917 ], [ 272.903915662650491, -244.661295180723215 ], [ 266.841114457831225, -254.765963855422001 ], [ 248.65271084337337, -265.544277108434073 ], [ 237.874397590361355, -268.912500000000307 ], [ 222.380572289156532, -269.586144578313565 ], [ 209.581325301204743, -272.280722891566597 ], [ 196.782078313252896, -279.017168674699121 ], [ 190.71927710843363, -283.059036144578613 ], [ 186.00376506024088, -279.690813253012379 ], [ 185.330120481927622, -273.628012048193057 ], [ 186.677409638554138, -267.565210843373791 ], [ 188.024698795180655, -261.502409638554525 ], [ 189.371987951807114, -253.418674698795485 ], [ 191.392921686746888, -248.029518072289477 ], [ 190.045632530120372, -241.966716867470183 ], [ 185.330120481927622, -237.251204819277433 ], [ 189.371987951807114, -237.251204819277433 ], [ 192.066566265060146, -235.230271084337659 ], [ 198.129367469879412, -231.862048192771397 ], [ 206.88674698795171, -234.556626506024401 ], [ 212.275903614457718, -244.661295180723215 ], [ 214.97048192771075, -246.682228915662961 ], [ 216.317771084337267, -250.724096385542481 ], [ 212.275903614457718, -253.418674698795485 ], [ 218.338704819277041, -258.134186746988235 ], [ 231.811596385542089, -256.786897590361718 ], [ 237.874397590361355, -261.502409638554525 ], [ 245.958132530120395, -258.807831325301549 ], [ 247.305421686746911, -256.786897590361718 ], [ 252.694578313252919, -246.008584337349703 ], [ 258.083734939758926, -237.251204819277433 ], [ 255.389156626505951, -234.556626506024401 ], [ 255.389156626505951, -229.167469879518393 ], [ 266.167469879517967, -211.652710843373796 ], [ 266.167469879517967, -203.568975903614785 ], [ 258.757379518072185, -177.970481927711148 ], [ 263.472891566264934, -163.150301204819584 ], [ 277.619427710843297, -167.865813253012362 ] ] ] ] } },
{ "type": "Feature", "properties": { "id": 1, "zone": "Indus delta", "code": null }, "geometry": { "type": "MultiPolygon", "coordinates": [ [ [ [ 208.234036144578226, -363.896385542168957 ], [ 205.539457831325194, -361.87545180722924 ], [ 209.581325301204743, -368.611897590361764 ], [ 214.97048192771075, -377.369277108434062 ], [ 218.338704819277041, -386.126656626506303 ], [ 223.05421686746979, -392.863102409638884 ], [ 221.033283132530016, -397.578614457831634 ], [ 216.317771084337267, -404.315060240964158 ], [ 204.865813253011936, -409.030572289156908 ], [ 192.066566265060146, -409.030572289156908 ], [ 182.63554216867459, -398.252259036144892 ], [ 181.288253012048074, -387.47394578313282 ], [ 175.225451807228808, -378.042921686747263 ], [ 176.572740963855324, -377.369277108434062 ], [ 185.330120481927622, -375.348343373494288 ], [ 195.434789156626437, -370.632831325301481 ], [ 201.497590361445702, -362.549096385542498 ], [ 207.560391566264968, -363.896385542168957 ], [ 208.234036144578226, -363.896385542168957 ] ] ] ] } },
{ "type": "Feature", "properties": { "id": 2, "zone": "Southern irrigated plain", "code": null }, "geometry": { "type": "MultiPolygon", "coordinates": [ [ [ [ 267.514759036144483, -253.418674698795485 ], [ 268.862048192770999, -252.745030120482227 ], [ 270.209337349397515, -254.765963855422001 ], [ 273.577560240963749, -258.807831325301549 ], [ 272.903915662650491, -260.828765060241267 ], [ 270.882981927710716, -266.217921686747275 ], [ 266.841114457831225, -272.280722891566597 ], [ 258.083734939758926, -277.669879518072605 ], [ 251.347289156626402, -283.059036144578613 ], [ 245.958132530120395, -287.77454819277142 ], [ 241.242620481927588, -289.121837349397879 ], [ 233.158885542168605, -295.858283132530403 ], [ 225.748795180722823, -300.573795180723209 ], [ 221.706927710843274, -308.657530120482249 ], [ 218.338704819277041, -316.067620481928031 ], [ 218.338704819277041, -321.456777108434039 ], [ 218.338704819277041, -326.845933734940047 ], [ 222.380572289156532, -331.561445783132854 ], [ 226.422439759036024, -334.929668674699087 ], [ 231.811596385542089, -336.950602409638861 ], [ 237.200753012048096, -345.034337349397902 ], [ 241.242620481927588, -349.749849397590651 ], [ 243.93719879518062, -353.118072289156942 ], [ 249.999999999999886, -355.812650602409917 ], [ 252.694578313252919, -362.549096385542498 ], [ 250.673644578313144, -363.896385542168957 ], [ 247.979066265060169, -367.938253012048506 ], [ 245.958132530120395, -373.327409638554514 ], [ 243.93719879518062, -376.695632530120804 ], [ 239.221686746987871, -381.411144578313554 ], [ 237.874397590361355, -390.168524096385852 ], [ 233.158885542168605, -394.884036144578602 ], [ 225.075150602409565, -394.884036144578602 ], [ 207.560391566264968, -361.201807228915982 ], [ 208.234036144578226, -360.528162650602724 ], [ 208.907680722891484, -351.770783132530426 ], [ 206.213102409638452, -345.70798192771116 ], [ 199.476656626505928, -342.339759036144869 ], [ 197.455722891566154, -336.950602409638861 ], [ 192.740210843373404, -332.235090361446112 ], [ 184.656475903614364, -328.866867469879821 ], [ 182.63554216867459, -318.762198795181007 ], [ 184.656475903614364, -309.331174698795508 ], [ 184.656475903614364, -299.226506024096693 ], [ 186.677409638554138, -289.121837349397879 ], [ 190.71927710843363, -282.385391566265355 ], [ 197.455722891566154, -277.669879518072605 ], [ 203.51852409638542, -274.975301204819573 ], [ 214.296837349397492, -270.933433734940081 ], [ 226.422439759036024, -269.586144578313565 ], [ 237.874397590361355, -268.238855421687049 ], [ 247.305421686746911, -266.891566265060533 ], [ 252.694578313252919, -262.176054216867783 ], [ 260.104668674698701, -258.134186746988235 ], [ 267.514759036144483, -253.418674698795485 ] ] ] ] } },
{ "type": "Feature", "properties": { "id": 3, "zone": "Sandy desert a", "code": null }, "geometry": { "type": "MultiPolygon", "coordinates": [ [ [ [ 338.921084337349271, -237.924849397590663 ], [ 338.24743975903607, -237.924849397590663 ], [ 338.921084337349271, -237.924849397590663 ], [ 337.573795180722811, -240.619427710843695 ], [ 337.573795180722811, -246.682228915662961 ], [ 332.858283132530005, -251.397740963855739 ], [ 329.490060240963771, -253.418674698795485 ], [ 324.100903614457707, -254.092319277108743 ], [ 320.059036144578215, -258.807831325301549 ], [ 317.364457831325183, -264.196987951807557 ], [ 314.669879518072207, -272.280722891566597 ], [ 311.975301204819175, -272.280722891566597 ], [ 305.9125, -279.690813253012379 ], [ 303.891566265060135, -283.732680722891871 ], [ 292.439608433734861, -285.079969879518387 ], [ 285.703162650602337, -287.77454819277142 ], [ 282.334939759036047, -290.469126506024395 ], [ 277.619427710843297, -291.142771084337653 ], [ 276.272138554216781, -286.427259036144903 ], [ 275.598493975903523, -283.059036144578613 ], [ 271.556626506023974, -282.385391566265355 ], [ 264.82018072289145, -282.385391566265355 ], [ 260.778313253011959, -287.77454819277142 ], [ 257.410090361445668, -293.837349397590685 ], [ 255.389156626505951, -299.900150602409951 ], [ 248.65271084337337, -303.942018072289443 ], [ 242.589909638554104, -312.699397590361741 ], [ 243.263554216867362, -320.783132530120781 ], [ 247.979066265060169, -326.172289156626789 ], [ 258.083734939758926, -331.561445783132854 ], [ 258.757379518072185, -336.950602409638861 ], [ 258.083734939758926, -347.055271084337676 ], [ 267.514759036144483, -355.812650602409917 ], [ 274.251204819277007, -355.812650602409917 ], [ 275.598493975903523, -363.222740963855699 ], [ 278.966716867469756, -369.285542168675022 ], [ 281.661295180722789, -374.67469879518103 ], [ 282.334939759036047, -378.716566265060521 ], [ 286.376807228915538, -382.75843373494007 ], [ 285.029518072289079, -388.147590361446078 ], [ 283.682228915662563, -393.536746987952085 ], [ 279.640361445783014, -393.536746987952085 ], [ 274.251204819277007, -390.84216867469911 ], [ 267.514759036144483, -391.515813253012368 ], [ 258.757379518072185, -393.536746987952085 ], [ 254.041867469879435, -398.92590361445815 ], [ 251.347289156626402, -396.231325301205118 ], [ 242.589909638554104, -394.210391566265343 ], [ 234.506174698795064, -392.863102409638884 ], [ 236.527108433734838, -388.147590361446078 ], [ 238.548042168674613, -384.105722891566586 ], [ 241.916265060240846, -377.369277108434062 ], [ 245.284487951807137, -374.001054216867772 ], [ 249.326355421686628, -367.264608433735248 ], [ 249.326355421686628, -365.243674698795473 ], [ 252.020933734939661, -361.87545180722924 ], [ 250.673644578313144, -357.159939759036433 ], [ 246.631777108433653, -354.465361445783458 ], [ 241.916265060240846, -350.423493975903909 ], [ 237.200753012048096, -345.034337349397902 ], [ 233.832530120481806, -338.971536144578636 ], [ 229.117018072289056, -333.582379518072571 ], [ 221.706927710843274, -331.561445783132854 ], [ 219.6859939759035, -327.519578313253305 ], [ 218.338704819277041, -320.783132530120781 ], [ 219.6859939759035, -312.699397590361741 ], [ 223.727861445783049, -303.942018072289443 ], [ 233.158885542168605, -293.837349397590685 ], [ 244.610843373493879, -286.427259036144903 ], [ 255.389156626505951, -280.364457831325637 ], [ 258.757379518072185, -274.975301204819573 ], [ 266.167469879517967, -271.607078313253339 ], [ 270.209337349397515, -266.891566265060533 ], [ 272.903915662650491, -262.176054216867783 ], [ 273.577560240963749, -257.460542168675033 ], [ 280.314006024096273, -254.765963855422001 ], [ 293.78689759036132, -248.029518072289477 ], [ 306.586144578313167, -242.640361445783441 ], [ 316.017168674698667, -235.903915662650917 ], [ 321.406325301204731, -233.209337349397913 ], [ 329.490060240963771, -229.167469879518393 ], [ 333.531927710843263, -229.167469879518393 ], [ 333.531927710843263, -232.535692771084655 ], [ 330.837349397590287, -237.924849397590663 ], [ 333.531927710843263, -237.924849397590663 ], [ 338.921084337349271, -237.924849397590663 ] ] ] ] } },
{ "type": "Feature", "properties": { "id": 4, "zone": "Northern irrigated plain", "code": null }, "geometry": { "type": "MultiPolygon", "coordinates": [ [ [ [ 374.624246987951665, -161.803012048193096 ], [ 375.971536144578181, -165.171234939759358 ], [ 377.992469879518012, -165.844879518072617 ], [ 373.950602409638464, -171.234036144578624 ], [ 377.318825301204697, -178.644126506024406 ], [ 375.29789156626498, -184.033283132530443 ], [ 372.603313253011947, -194.137951807229229 ], [ 369.235090361445714, -199.527108433735265 ], [ 364.519578313252964, -204.242620481928014 ], [ 359.130421686746899, -210.979066265060567 ], [ 359.804066265060101, -218.389156626506349 ], [ 352.393975903614319, -219.736445783132837 ], [ 347.004819277108311, -225.125602409638873 ], [ 343.636596385542077, -229.167469879518393 ], [ 341.615662650602303, -237.924849397590663 ], [ 341.615662650602303, -237.924849397590663 ], [ 339.594728915662529, -239.272138554217179 ], [ 335.552861445783037, -239.272138554217179 ], [ 330.837349397590287, -238.598493975903921 ], [ 330.837349397590287, -236.577560240964175 ], [ 332.184638554216747, -233.882981927711143 ], [ 333.531927710843263, -229.841114457831651 ], [ 327.469126506023997, -229.841114457831651 ], [ 322.753614457831247, -234.556626506024401 ], [ 317.364457831325183, -235.903915662650917 ], [ 322.753614457831247, -235.230271084337659 ], [ 314.669879518072207, -239.945783132530437 ], [ 301.196987951807102, -246.682228915662961 ], [ 289.745030120481829, -250.724096385542481 ], [ 282.334939759036047, -254.765963855422001 ], [ 276.945783132530039, -256.113253012048517 ], [ 272.903915662650491, -258.807831325301549 ], [ 266.841114457831225, -252.071385542168997 ], [ 268.188403614457741, -251.397740963855739 ], [ 271.556626506023974, -243.314006024096699 ], [ 272.230271084337232, -231.862048192771397 ], [ 274.251204819277007, -221.083734939759353 ], [ 276.945783132530039, -216.368222891566575 ], [ 276.945783132530039, -210.979066265060567 ], [ 275.598493975903523, -204.916265060241273 ], [ 276.272138554216781, -198.853463855422007 ], [ 278.293072289156555, -199.527108433735265 ], [ 280.987650602409531, -200.874397590361752 ], [ 282.334939759036047, -202.895331325301527 ], [ 285.029518072289079, -207.610843373494276 ], [ 287.724096385542055, -212.326355421687055 ], [ 287.724096385542055, -216.368222891566575 ], [ 290.418674698795087, -216.368222891566575 ], [ 299.176054216867385, -208.284487951807535 ], [ 301.870632530120361, -201.548042168675011 ], [ 303.891566265060135, -190.769728915662967 ], [ 306.586144578313167, -188.075150602409963 ], [ 311.975301204819175, -182.685993975903926 ], [ 314.669879518072207, -174.602259036144886 ], [ 320.732680722891473, -163.150301204819584 ], [ 318.038102409638441, -159.108433734940064 ], [ 311.975301204819175, -157.087500000000318 ], [ 309.280722891566143, -153.045632530120798 ], [ 324.774548192770965, -146.982831325301532 ], [ 342.289307228915561, -144.961897590361758 ], [ 355.762198795180666, -150.351054216867794 ], [ 367.214156626505883, -156.41385542168706 ], [ 374.624246987951665, -161.803012048193096 ] ] ] ] } },
{ "type": "Feature", "properties": { "id": 6, "zone": "Wet mountains", "code": null }, "geometry": { "type": "MultiPolygon", "coordinates": [ [ [ [ 367.214156626505883, -60.082680722891887 ], [ 371.256024096385431, -57.388102409638876 ], [ 373.276957831325149, -58.735391566265385 ], [ 373.276957831325149, -60.756325301205138 ], [ 371.929668674698746, -64.798192771084658 ], [ 371.256024096385431, -67.492771084337676 ], [ 367.887801204819198, -72.20828313253044 ], [ 361.825, -72.881927710843698 ], [ 359.804066265060101, -75.576506024096702 ], [ 353.741265060240835, -76.923795180723218 ], [ 351.046686746987859, -80.965662650602724 ], [ 344.983885542168593, -91.743975903614782 ], [ 344.310240963855335, -96.459487951807546 ], [ 344.310240963855335, -102.522289156626826 ], [ 342.962951807228819, -110.606024096385866 ], [ 347.004819277108311, -111.953313253012368 ], [ 349.699397590361343, -116.668825301205132 ], [ 347.004819277108311, -119.36340361445815 ], [ 339.594728915662529, -113.974246987952128 ], [ 336.900150602409553, -109.932379518072608 ], [ 333.531927710843263, -106.564156626506346 ], [ 328.816415662650513, -103.869578313253328 ], [ 325.448192771084223, -99.154066265060564 ], [ 320.059036144578215, -96.459487951807546 ], [ 313.996234939758949, -95.112198795181044 ], [ 311.975301204819175, -91.743975903614782 ], [ 311.975301204819175, -88.37575301204852 ], [ 320.059036144578215, -78.27108433734972 ], [ 330.163704819277029, -68.840060240964178 ], [ 341.615662650602303, -64.124548192771414 ], [ 348.352108433734827, -60.756325301205138 ], [ 360.477710843373416, -60.082680722891887 ], [ 367.214156626505883, -60.082680722891887 ] ] ] ] } },
{ "type": "Feature", "properties": { "id": 7, "zone": "Northern dry mountains", "code": null }, "geometry": { "type": "MultiPolygon", "coordinates": [ [ [ [ 403.590963855421592, -36.505120481928031 ], [ 405.611897590361309, -31.115963855422024 ], [ 405.611897590361309, -32.463253012048511 ], [ 405.611897590361309, -35.831475903614773 ], [ 406.959186746987825, -38.526054216867806 ], [ 404.938253012048108, -39.199698795181064 ], [ 402.243674698795076, -39.199698795181064 ], [ 397.528162650602326, -39.199698795181064 ], [ 392.812650602409576, -40.546987951807552 ], [ 388.770783132530028, -42.567921686747326 ], [ 383.381626506023963, -45.26250000000033 ], [ 379.339759036144528, -49.978012048193108 ], [ 375.971536144578181, -51.325301204819596 ], [ 373.276957831325149, -56.714457831325632 ], [ 367.887801204819198, -60.082680722891894 ], [ 359.804066265060101, -60.082680722891894 ], [ 353.067620481927634, -60.756325301205152 ], [ 347.678463855421569, -61.42996987951841 ], [ 344.310240963855335, -64.798192771084672 ], [ 334.205572289156521, -68.166415662650934 ], [ 328.142771084337255, -70.18734939759068 ], [ 318.711746987951699, -75.576506024096716 ], [ 314.669879518072207, -83.660240963855756 ], [ 312.648945783132433, -91.070331325301538 ], [ 307.933433734939683, -92.417620481928026 ], [ 306.586144578313167, -93.091265060241284 ], [ 303.891566265060135, -95.112198795181058 ], [ 299.849698795180643, -99.154066265060578 ], [ 298.502409638554127, -101.175000000000324 ], [ 293.113253012048119, -102.52228915662684 ], [ 291.092319277108345, -104.543222891566586 ], [ 290.418674698795087, -107.23780120481959 ], [ 291.765963855421603, -112.626957831325626 ], [ 290.418674698795087, -115.32153614457863 ], [ 285.703162650602337, -117.342469879518404 ], [ 282.334939759036047, -118.016114457831662 ], [ 278.966716867469756, -119.36340361445815 ], [ 275.598493975903523, -119.36340361445815 ], [ 274.251204819277007, -117.342469879518404 ], [ 273.577560240963749, -115.32153614457863 ], [ 272.230271084337232, -111.27966867469911 ], [ 271.556626506023974, -106.56415662650636 ], [ 272.903915662650491, -105.216867469879844 ], [ 283.008584337349305, -103.869578313253328 ], [ 285.029518072289079, -100.501355421687066 ], [ 285.703162650602337, -93.091265060241284 ], [ 282.334939759036047, -87.702108433735276 ], [ 287.050451807228796, -82.986596385542498 ], [ 291.765963855421603, -76.923795180723204 ], [ 296.481475903614353, -71.534638554217196 ], [ 296.481475903614353, -66.819126506024418 ], [ 297.155120481927611, -58.061746987952148 ], [ 293.113253012048119, -48.630722891566592 ], [ 287.724096385542055, -40.546987951807552 ], [ 291.765963855421603, -33.810542168675028 ], [ 301.196987951807102, -31.115963855422024 ], [ 306.586144578313167, -27.074096385542504 ], [ 314.669879518072207, -18.990361445783464 ], [ 325.448192771084223, -16.969427710843703 ], [ 340.942018072289045, -14.948493975903943 ], [ 340.942018072289045, -14.948493975903943 ], [ 359.130421686746899, -14.948493975903943 ], [ 372.603313253011947, -10.23298192771118 ], [ 384.728915662650479, -12.253915662650925 ], [ 390.118072289156544, -16.295783132530445 ], [ 398.201807228915527, -17.643072289156962 ], [ 404.264608433734793, -27.074096385542504 ], [ 403.590963855421592, -36.505120481928031 ], [ 403.590963855421592, -36.505120481928031 ] ] ] ] } },
{ "type": "Feature", "properties": { "id": 8, "zone": "Western dry mountains", "code": null }, "geometry": { "type": "MultiPolygon", "coordinates": [ [ [ [ 271.556626506023974, -106.56415662650636 ], [ 270.882981927710716, -105.890512048193102 ], [ 271.556626506023974, -106.56415662650636 ], [ 271.556626506023974, -107.911445783132848 ], [ 272.903915662650491, -109.932379518072622 ], [ 272.903915662650491, -112.626957831325626 ], [ 273.577560240963749, -114.647891566265372 ], [ 274.251204819277007, -117.342469879518404 ], [ 278.293072289156555, -118.689759036144892 ], [ 283.682228915662563, -118.016114457831662 ], [ 287.724096385542055, -117.342469879518404 ], [ 289.745030120481829, -115.32153614457863 ], [ 293.78689759036132, -114.647891566265372 ], [ 299.849698795180643, -115.32153614457863 ], [ 303.891566265060135, -114.647891566265372 ], [ 310.628012048192659, -113.974246987952142 ], [ 311.975301204819175, -114.647891566265372 ], [ 311.301656626505917, -117.342469879518404 ], [ 308.607078313252885, -122.731626506024412 ], [ 306.586144578313167, -124.752560240964186 ], [ 305.9125, -124.752560240964186 ], [ 305.238855421686651, -127.44713855421719 ], [ 303.217921686746877, -130.815361445783452 ], [ 302.544277108433619, -133.509939759036456 ], [ 299.849698795180643, -134.857228915662972 ], [ 296.481475903614353, -136.204518072289488 ], [ 292.439608433734861, -138.899096385542492 ], [ 289.745030120481829, -140.246385542169008 ], [ 287.050451807228796, -144.288253012048528 ], [ 285.029518072289079, -144.961897590361758 ], [ 285.029518072289079, -140.246385542169008 ], [ 285.029518072289079, -138.225451807229234 ], [ 283.008584337349305, -136.878162650602718 ], [ 280.987650602409531, -136.204518072289488 ], [ 278.966716867469756, -134.857228915662972 ], [ 276.272138554216781, -134.857228915662972 ], [ 274.924849397590265, -134.183584337349714 ], [ 272.903915662650491, -136.204518072289488 ], [ 270.882981927710716, -138.899096385542492 ], [ 270.882981927710716, -139.57274096385575 ], [ 268.188403614457741, -142.267319277108754 ], [ 266.841114457831225, -147.65647590361479 ], [ 266.841114457831225, -149.003765060241278 ], [ 264.146536144578192, -149.003765060241278 ], [ 262.125602409638475, -151.024698795181052 ], [ 262.125602409638475, -155.066566265060544 ], [ 262.125602409638475, -159.782078313253351 ], [ 263.472891566264934, -162.476656626506326 ], [ 265.493825301204708, -163.150301204819584 ], [ 264.146536144578192, -164.4975903614461 ], [ 261.451957831325217, -168.539457831325649 ], [ 259.431024096385443, -173.928614457831657 ], [ 259.431024096385443, -177.970481927711148 ], [ 260.778313253011959, -184.033283132530414 ], [ 260.778313253011959, -187.401506024096705 ], [ 262.125602409638475, -192.790662650602712 ], [ 263.472891566264934, -194.811596385542487 ], [ 264.82018072289145, -198.179819277108777 ], [ 264.82018072289145, -203.568975903614785 ], [ 266.841114457831225, -206.26355421686776 ], [ 264.82018072289145, -211.652710843373825 ], [ 264.146536144578192, -214.3472891566268 ], [ 263.472891566264934, -217.041867469879833 ], [ 260.778313253011959, -222.43102409638584 ], [ 258.083734939758926, -225.125602409638873 ], [ 255.389156626505951, -227.820180722891905 ], [ 255.389156626505951, -230.514759036144881 ], [ 255.389156626505951, -235.903915662650945 ], [ 256.73644578313241, -236.577560240964146 ], [ 258.083734939758926, -239.272138554217179 ], [ 255.389156626505951, -241.293072289156953 ], [ 254.041867469879435, -243.987650602409929 ], [ 252.694578313252919, -248.703162650602735 ], [ 249.999999999999886, -251.397740963855711 ], [ 249.326355421686628, -254.765963855422001 ], [ 244.610843373493879, -257.460542168675033 ], [ 239.895331325301129, -260.155120481928009 ], [ 237.200753012048096, -259.481475903614751 ], [ 232.485240963855347, -257.460542168675033 ], [ 226.422439759036024, -257.460542168675033 ], [ 220.359638554216758, -256.786897590361775 ], [ 215.644126506024008, -256.786897590361775 ], [ 214.296837349397492, -254.765963855422001 ], [ 212.275903614457718, -252.071385542168969 ], [ 214.296837349397492, -250.724096385542509 ], [ 216.317771084337267, -248.703162650602735 ], [ 214.296837349397492, -246.682228915662961 ], [ 212.275903614457718, -241.966716867470211 ], [ 210.928614457831202, -238.598493975903921 ], [ 209.581325301204743, -235.903915662650945 ], [ 208.907680722891484, -233.209337349397913 ], [ 206.88674698795171, -231.862048192771397 ], [ 202.171234939758961, -231.188403614458139 ], [ 198.80301204819267, -231.862048192771397 ], [ 194.0875, -231.862048192771397 ], [ 191.392921686746888, -234.556626506024429 ], [ 190.71927710843363, -235.903915662650945 ], [ 188.024698795180655, -235.903915662650945 ], [ 188.024698795180655, -237.251204819277405 ], [ 188.698343373493856, -241.293072289156953 ], [ 190.045632530120372, -243.987650602409929 ], [ 190.045632530120372, -248.703162650602735 ], [ 188.024698795180655, -253.418674698795485 ], [ 188.024698795180655, -259.481475903614751 ], [ 187.351054216867396, -263.523343373494299 ], [ 185.330120481927622, -268.912500000000307 ], [ 185.330120481927622, -271.607078313253339 ], [ 186.00376506024088, -278.343524096385863 ], [ 188.698343373493856, -282.385391566265355 ], [ 190.71927710843363, -284.406325301205129 ], [ 186.677409638554138, -290.469126506024395 ], [ 185.330120481927622, -295.184638554217202 ], [ 183.309186746987848, -301.247439759036467 ], [ 182.63554216867459, -303.268373493976242 ], [ 177.246385542168582, -303.268373493976242 ], [ 173.20451807228909, -306.636596385542475 ], [ 173.20451807228909, -309.331174698795508 ], [ 170.509939759036058, -312.699397590361741 ], [ 165.794427710843308, -313.373042168674999 ], [ 161.078915662650502, -315.393975903614773 ], [ 155.689759036144494, -315.393975903614773 ], [ 152.995180722891462, -316.74126506024129 ], [ 150.300602409638486, -311.352108433735225 ], [ 148.279668674698712, -306.636596385542475 ], [ 147.606024096385454, -301.921084337349726 ], [ 145.58509036144568, -295.184638554217202 ], [ 145.58509036144568, -289.795481927711137 ], [ 148.279668674698712, -285.079969879518387 ], [ 149.626957831325228, -279.017168674699121 ], [ 150.300602409638486, -273.628012048193114 ], [ 152.995180722891462, -268.238855421687049 ], [ 154.342469879517978, -262.849698795181041 ], [ 153.66882530120472, -258.134186746988291 ], [ 155.689759036144494, -254.765963855422001 ], [ 156.363403614457752, -250.050451807229251 ], [ 154.342469879517978, -245.334939759036445 ], [ 155.689759036144494, -241.966716867470211 ], [ 158.384337349397526, -238.598493975903921 ], [ 159.731626506023986, -233.209337349397913 ], [ 158.384337349397526, -227.820180722891905 ], [ 158.384337349397526, -225.125602409638873 ], [ 158.384337349397526, -217.041867469879833 ], [ 159.731626506023986, -212.326355421687083 ], [ 159.731626506023986, -208.958132530120793 ], [ 159.057981927710728, -203.568975903614785 ], [ 163.099849397590276, -197.506174698795519 ], [ 169.8362951807228, -192.790662650602712 ], [ 172.530873493975832, -188.748795180723221 ], [ 177.246385542168582, -186.727861445783446 ], [ 181.961897590361332, -187.401506024096705 ], [ 190.045632530120372, -188.748795180723221 ], [ 196.108433734939638, -186.054216867470188 ], [ 198.80301204819267, -182.012349397590697 ], [ 198.129367469879412, -177.29683734939789 ], [ 202.171234939758961, -176.623192771084632 ], [ 210.254969879518001, -171.907680722891882 ], [ 217.665060240963783, -171.234036144578624 ], [ 225.075150602409565, -173.928614457831657 ], [ 232.485240963855347, -173.928614457831657 ], [ 237.874397590361355, -165.844879518072617 ], [ 237.874397590361355, -160.455722891566609 ], [ 239.221686746987871, -149.677409638554536 ], [ 241.916265060240846, -147.65647590361479 ], [ 241.916265060240846, -141.593674698795496 ], [ 244.610843373493879, -134.857228915662972 ], [ 249.999999999999886, -130.815361445783452 ], [ 254.041867469879435, -130.815361445783452 ], [ 259.431024096385443, -128.794427710843706 ], [ 264.146536144578192, -123.40527108433767 ], [ 262.799246987951733, -120.710692771084666 ], [ 260.778313253011959, -116.668825301205146 ], [ 258.757379518072185, -111.953313253012368 ], [ 253.368222891566177, -107.911445783132848 ], [ 254.041867469879435, -103.869578313253328 ], [ 259.431024096385443, -105.216867469879844 ], [ 264.82018072289145, -106.56415662650636 ], [ 271.556626506023974, -106.56415662650636 ] ] ] ] } },
{ "type": "Feature", "properties": { "id": 9, "zone": "Dry western plateau", "code": null }, "geometry": { "type": "MultiPolygon", "coordinates": [ [ [ [ 158.384337349397526, -229.167469879518393 ], [ 157.710692771084268, -229.167469879518393 ], [ 159.731626506023986, -229.167469879518393 ], [ 159.731626506023986, -231.862048192771397 ], [ 159.057981927710728, -235.903915662650917 ], [ 158.384337349397526, -237.251204819277433 ], [ 155.689759036144494, -242.640361445783441 ], [ 154.342469879517978, -245.334939759036445 ], [ 157.710692771084268, -250.724096385542481 ], [ 157.03704819277101, -255.439608433735259 ], [ 155.689759036144494, -260.155120481928009 ], [ 155.016114457831236, -262.849698795181041 ], [ 154.342469879517978, -266.217921686747275 ], [ 152.995180722891462, -270.259789156626823 ], [ 150.974246987951688, -274.301656626506315 ], [ 150.300602409638486, -276.322590361446089 ], [ 150.300602409638486, -280.364457831325637 ], [ 150.300602409638486, -284.406325301205129 ], [ 148.95331325301197, -285.753614457831645 ], [ 147.606024096385454, -291.142771084337653 ], [ 145.58509036144568, -293.163704819277427 ], [ 146.932379518072196, -298.552861445783435 ], [ 147.606024096385454, -301.921084337349726 ], [ 149.626957831325228, -307.310240963855733 ], [ 150.974246987951688, -312.699397590361741 ], [ 152.995180722891462, -315.393975903614773 ], [ 155.689759036144494, -316.067620481928031 ], [ 160.405271084337244, -314.046686746988257 ], [ 163.773493975903534, -312.699397590361741 ], [ 169.162650602409542, -312.025753012048483 ], [ 172.530873493975832, -312.025753012048483 ], [ 172.530873493975832, -309.331174698795508 ], [ 174.55180722891555, -307.310240963855733 ], [ 177.246385542168582, -304.615662650602701 ], [ 179.940963855421614, -303.942018072289443 ], [ 184.656475903614364, -303.942018072289443 ], [ 185.330120481927622, -305.289307228915959 ], [ 185.330120481927622, -307.983885542168991 ], [ 184.656475903614364, -312.699397590361741 ], [ 183.309186746987848, -315.393975903614773 ], [ 183.309186746987848, -320.783132530120781 ], [ 184.656475903614364, -324.82500000000033 ], [ 188.024698795180655, -330.214156626506337 ], [ 191.392921686746888, -330.887801204819596 ], [ 196.108433734939638, -334.256024096385829 ], [ 198.80301204819267, -336.950602409638861 ], [ 199.476656626505928, -341.666114457831611 ], [ 201.497590361445702, -343.687048192771385 ], [ 204.192168674698678, -345.034337349397902 ], [ 207.560391566264968, -347.055271084337676 ], [ 208.907680722891484, -349.749849397590651 ], [ 208.907680722891484, -353.118072289156942 ], [ 208.907680722891484, -355.812650602409917 ], [ 206.88674698795171, -359.854518072289466 ], [ 204.192168674698678, -361.87545180722924 ], [ 201.497590361445702, -361.87545180722924 ], [ 201.497590361445702, -363.896385542168957 ], [ 196.108433734939638, -369.285542168675022 ], [ 190.045632530120372, -373.327409638554514 ], [ 182.63554216867459, -376.695632530120804 ], [ 178.593674698795098, -377.369277108434062 ], [ 175.225451807228808, -377.369277108434062 ], [ 171.857228915662574, -377.369277108434062 ], [ 167.141716867469768, -375.348343373494288 ], [ 166.46807228915651, -371.306475903614739 ], [ 165.12078313253005, -367.264608433735248 ], [ 163.773493975903534, -364.570030120482215 ], [ 163.773493975903534, -360.528162650602724 ], [ 160.405271084337244, -355.139006024096716 ], [ 155.689759036144494, -354.465361445783458 ], [ 150.974246987951688, -355.812650602409917 ], [ 150.300602409638486, -360.528162650602724 ], [ 144.237801204819164, -360.528162650602724 ], [ 138.174999999999898, -359.180873493976208 ], [ 134.133132530120406, -363.896385542168957 ], [ 127.396686746987882, -361.201807228915982 ], [ 123.354819277108334, -365.917319277108732 ], [ 119.312951807228842, -365.917319277108732 ], [ 114.597439759036035, -367.264608433735248 ], [ 105.840060240963794, -363.896385542168957 ], [ 96.409036144578238, -364.570030120482215 ], [ 91.019879518072202, -362.549096385542498 ], [ 85.630722891566165, -362.549096385542498 ], [ 80.915210843373416, -363.896385542168957 ], [ 72.831475903614376, -363.896385542168957 ], [ 66.768674698795081, -363.896385542168957 ], [ 62.053162650602331, -366.59096385542199 ], [ 60.705873493975815, -369.285542168675022 ], [ 57.337650602409553, -371.306475903614739 ], [ 52.622138554216775, -369.285542168675022 ], [ 45.885692771084251, -366.59096385542199 ], [ 43.191114457831247, -363.222740963855699 ], [ 39.149246987951727, -362.549096385542498 ], [ 37.128313253011953, -365.917319277108732 ], [ 33.760090361445691, -367.938253012048506 ], [ 29.044578313252941, -367.938253012048506 ], [ 25.002710843373421, -363.222740963855699 ], [ 26.35, -356.486295180723175 ], [ 27.023644578313167, -350.423493975903909 ], [ 27.697289156626425, -348.402560240964135 ], [ 31.739156626505945, -341.666114457831611 ], [ 33.086445783132433, -331.561445783132854 ], [ 37.128313253011953, -330.214156626506337 ], [ 42.517469879517989, -333.582379518072571 ], [ 45.885692771084251, -324.82500000000033 ], [ 49.927560240963771, -322.804066265060555 ], [ 71.484186746987859, -321.456777108434039 ], [ 72.831475903614376, -313.373042168674999 ], [ 73.505120481927634, -303.942018072289443 ], [ 71.484186746987859, -302.594728915662984 ], [ 64.747740963855335, -303.268373493976185 ], [ 61.379518072289073, -301.247439759036467 ], [ 61.379518072289073, -297.879216867470177 ], [ 62.053162650602331, -280.364457831325637 ], [ 62.72680722891559, -273.628012048193057 ], [ 60.032228915662557, -269.586144578313565 ], [ 49.927560240963771, -266.891566265060533 ], [ 39.822891566264985, -261.502409638554525 ], [ 31.739156626505945, -250.050451807229223 ], [ 13.550753012048119, -224.451957831325615 ], [ 20.287198795180643, -223.778313253012357 ], [ 55.990361445783037, -237.924849397590663 ], [ 77.546987951807154, -234.556626506024401 ], [ 91.69352409638546, -237.251204819277433 ], [ 99.103614457831213, -237.251204819277433 ], [ 103.81912650602402, -235.903915662650917 ], [ 107.187349397590253, -234.556626506024401 ], [ 128.07033132530114, -237.924849397590663 ], [ 144.911445783132422, -231.188403614458139 ], [ 158.384337349397526, -229.167469879518393 ] ] ] ] } },
{ "type": "Feature", "properties": { "id": 33, "zone": "sandy desert b", "code": null }, "geometry": { "type": "MultiPolygon", "coordinates": [ [ [ [ 306.586144578313167, -152.37198795180754 ], [ 302.544277108433619, -153.045632530120798 ], [ 305.238855421686651, -152.37198795180754 ], [ 308.607078313252885, -152.37198795180754 ], [ 309.954367469879401, -153.045632530120798 ], [ 311.975301204819175, -156.41385542168706 ], [ 311.975301204819175, -158.434789156626834 ], [ 314.669879518072207, -159.108433734940064 ], [ 317.364457831325183, -159.782078313253322 ], [ 319.385391566264957, -161.129367469879838 ], [ 319.385391566264957, -163.823945783132842 ], [ 318.038102409638441, -165.844879518072617 ], [ 316.690813253011925, -168.53945783132562 ], [ 314.669879518072207, -170.560391566265366 ], [ 313.322590361445691, -175.949548192771402 ], [ 311.975301204819175, -179.317771084337664 ], [ 311.301656626505917, -184.033283132530443 ], [ 309.280722891566143, -186.727861445783446 ], [ 306.586144578313167, -188.748795180723192 ], [ 303.891566265060135, -191.443373493976225 ], [ 302.544277108433619, -196.158885542169003 ], [ 301.870632530120361, -199.527108433735265 ], [ 301.196987951807102, -202.895331325301527 ], [ 298.502409638554127, -207.610843373494276 ], [ 293.78689759036132, -211.652710843373796 ], [ 290.418674698795087, -215.020933734940058 ], [ 287.724096385542055, -215.694578313253317 ], [ 285.703162650602337, -211.652710843373796 ], [ 283.008584337349305, -204.916265060241273 ], [ 280.987650602409531, -202.221686746988269 ], [ 278.293072289156555, -199.527108433735265 ], [ 275.598493975903523, -199.527108433735265 ], [ 275.598493975903523, -194.137951807229229 ], [ 276.945783132530039, -189.42243975903645 ], [ 276.945783132530039, -186.054216867470188 ], [ 278.293072289156555, -180.665060240964181 ], [ 278.293072289156555, -177.970481927711148 ], [ 278.293072289156555, -172.58132530120514 ], [ 278.966716867469756, -168.53945783132562 ], [ 278.966716867469756, -167.192168674699104 ], [ 281.661295180722789, -167.192168674699104 ], [ 276.945783132530039, -173.254969879518399 ], [ 279.640361445783014, -167.865813253012362 ], [ 280.987650602409531, -167.192168674699104 ], [ 287.724096385542055, -163.150301204819584 ], [ 295.134186746987837, -158.434789156626834 ], [ 301.196987951807102, -152.37198795180754 ], [ 306.586144578313167, -152.37198795180754 ] ] ] ] } },
{ "type": "Feature", "properties": { "id": 44, "zone": "Northern irrigated plain b", "code": null }, "geometry": { "type": "MultiPolygon", "coordinates": [ [ [ [ 311.975301204819175, -91.743975903614782 ], [ 306.586144578313167, -91.743975903614782 ], [ 309.954367469879401, -91.070331325301524 ], [ 311.975301204819175, -92.417620481928026 ], [ 313.322590361445691, -94.438554216867786 ], [ 314.669879518072207, -95.785843373494302 ], [ 320.059036144578215, -95.785843373494302 ], [ 324.100903614457707, -97.133132530120804 ], [ 325.448192771084223, -99.154066265060564 ], [ 328.816415662650513, -101.848644578313568 ], [ 332.184638554216747, -105.890512048193088 ], [ 330.837349397590287, -106.564156626506346 ], [ 328.816415662650513, -108.585090361446106 ], [ 326.795481927710739, -109.25873493975935 ], [ 322.753614457831247, -112.626957831325626 ], [ 320.732680722891473, -113.30060240963887 ], [ 317.364457831325183, -113.30060240963887 ], [ 315.343524096385465, -113.30060240963887 ], [ 311.975301204819175, -113.30060240963887 ], [ 305.9125, -112.626957831325626 ], [ 301.196987951807102, -113.30060240963887 ], [ 297.828765060240869, -113.974246987952128 ], [ 293.78689759036132, -114.647891566265372 ], [ 291.092319277108345, -115.32153614457863 ], [ 290.418674698795087, -113.30060240963887 ], [ 290.418674698795087, -108.585090361446106 ], [ 290.418674698795087, -105.216867469879844 ], [ 291.765963855421603, -103.195933734940084 ], [ 294.460542168674579, -102.522289156626826 ], [ 297.155120481927611, -101.175000000000324 ], [ 301.196987951807102, -97.806777108434048 ], [ 303.891566265060135, -95.785843373494302 ], [ 305.238855421686651, -93.091265060241284 ], [ 307.933433734939683, -91.743975903614782 ], [ 311.975301204819175, -91.743975903614782 ] ] ] ] } }
]
}
