{
"type": "FeatureCollection",
"name": "zones_cleaned",
"crs": { "type": "name", "properties": { "name": "urn:ogc:def:crs:OGC:1.3:CRS84" } },
"features": [
{ "type": "Feature", "properties": { "id": 5, "zone": "Barani lands", "code": null }, "geometry": { "type": "Polygon", "coordinates": [ [ [ 373.950602409638464, -162.476656626506326 ], [ 347.004819277108311, -143.61460843373527 ], [ 299.849698795180643, -154.392921686747314 ], [ 274.251204819277007, -168.53945783132562 ], [ 260.778313253011959, -163.823945783132842 ], [ 262.799246987951733, -149.677409638554536 ], [ 274.251204819277007, -136.204518072289488 ], [ 284.355873493975821, -137.551807228915976 ], [ 285.703162650602337, -144.961897590361758 ], [ 293.113253012048119, -139.57274096385575 ], [ 302.544277108433619, -132.16265060240994 ], [ 308.607078313252885, -124.078915662650914 ], [ 313.322590361445691, -113.974246987952128 ], [ 324.100903614457707, -111.953313253012368 ], [ 330.837349397590287, -106.564156626506346 ], [ 338.24743975903607, -107.911445783132848 ], [ 340.942018072289045, -113.30060240963887 ], [ 347.004819277108311, -118.689759036144892 ], [ 346.331174698795053, -126.773493975903932 ], [ 351.046686746987859, -132.836295180723198 ], [ 363.172289156626448, -134.857228915662972 ], [ 375.29789156626498, -142.940963855422012 ], [ 380.687048192770931, -147.656475903614762 ], [ 392.812650602409576, -148.33012048192802 ], [ 392.812650602409576, -151.024698795181052 ], [ 390.791716867469745, -156.41385542168706 ], [ 380.013403614457729, -161.803012048193096 ], [ 376.645180722891496, -163.150301204819584 ], [ 373.950602409638464, -162.476656626506326 ] ] ] } },
{ "type": "Feature", "properties": { "id": 2, "zone": "Southern irrigated plain", "code": null }, "geometry": { "type": "Polygon", "coordinates": [ [ [ 267.514759036144483, -253.418674698795485 ], [ 268.862048192770999, -252.745030120482227 ], [ 270.209337349397515, -254.765963855422001 ], [ 273.577560240963749, -258.807831325301549 ], [ 272.903915662650491, -260.828765060241267 ], [ 270.882981927710716, -266.217921686747275 ], [ 266.841114457831225, -272.280722891566597 ], [ 258.083734939758926, -277.669879518072605 ], [ 251.347289156626402, -283.059036144578613 ], [ 245.958132530120395, -287.77454819277142 ], [ 241.242620481927588, -289.121837349397879 ], [ 233.158885542168605, -295.858283132530403 ], [ 225.748795180722823, -300.573795180723209 ], [ 221.706927710843274, -308.657530120482249 ], [ 218.338704819277041, -316.067620481928031 ], [ 218.338704819277041, -321.456777108434039 ], [ 218.338704819277041, -326.845933734940047 ], [ 222.380572289156532, -331.561445783132854 ], [ 226.422439759036024, -334.929668674699087 ], [ 231.811596385542089, -336.950602409638861 ], [ 237.200753012048096, -345.034337349397902 ], [ 241.242620481927588, -349.749849397590651 ], [ 243.93719879518062, -353.118072289156942 ], [ 249.999999999999886, -355.812650602409917 ], [ 252.694578313252919, -362.549096385542498 ], [ 250.673644578313144, -363.896385542168957 ], [ 247.979066265060169, -367.938253012048506 ], [ 245.958132530120395, -373.327409638554514 ], [ 243.93719879518062, -376.695632530120804 ], [ 239.221686746987871, -381.411144578313554 ], [ 237.874397590361355, -390.168524096385852 ], [ 233.158885542168605, -394.884036144578602 ], [ 225.075150602409565, -394.884036144578602 ], [ 207.560391566264968, -361.201807228915982 ], [ 208.234036144578226, -360.528162650602724 ], [ 208.907680722891484, -351.770783132530426 ], [ 206.213102409638452, -345.70798192771116 ], [ 199.476656626505928, -342.339759036144869 ], [ 197.455722891566154, -336.950602409638861 ], [ 192.740210843373404, -332.235090361446112 ], [ 184.656475903614364, -328.866867469879821 ], [ 182.63554216867459, -318.762198795181007 ], [ 184.656475903614364, -309.331174698795508 ], [ 184.656475903614364, -299.226506024096693 ], [ 186.677409638554138, -289.121837349397879 ], [ 190.71927710843363, -282.385391566265355 ], [ 197.455722891566154, -277.669879518072605 ], [ 203.51852409638542, -274.975301204819573 ], [ 214.296837349397492, -270.933433734940081 ], [ 226.422439759036024, -269.586144578313565 ], [ 237.874397590361355, -268.238855421687049 ], [ 247.305421686746911, -266.891566265060533 ], [ 252.694578313252919, -262.176054216867783 ], [ 260.104668674698701, -258.134186746988235 ], [ 267.514759036144483, -253.418674698795485 ] ] ] } },
{ "type": "Feature", "properties": { "id": 4, "zone": "Northern irrigated plain", "code": null }, "geometry": { "type": "Polygon", "coordinates": [ [ [ 374.624246987951665, -161.803012048193096 ], [ 375.971536144578181, -165.171234939759358 ], [ 377.992469879518012, -165.844879518072617 ], [ 373.950602409638464, -171.234036144578624 ], [ 377.318825301204697, -178.644126506024406 ], [ 375.29789156626498, -184.033283132530443 ], [ 372.603313253011947, -194.137951807229229 ], [ 369.235090361445714, -199.527108433735265 ], [ 364.519578313252964, -204.242620481928014 ], [ 359.130421686746899, -210.979066265060567 ], [ 359.804066265060101, -218.389156626506349 ], [ 352.393975903614319, -219.736445783132837 ], [ 347.004819277108311, -225.125602409638873 ], [ 343.636596385542077, -229.167469879518393 ], [ 341.615662650602303, -237.924849397590663 ], [ 339.594728915662529, -239.272138554217179 ], [ 335.552861445783037, -239.272138554217179 ], [ 330.837349397590287, -238.598493975903921 ], [ 330.837349397590287, -236.577560240964175 ], [ 332.184638554216747, -233.882981927711143 ], [ 333.531927710843263, -229.841114457831651 ], [ 327.469126506023997, -229.841114457831651 ], [ 322.753614457831247, -234.556626506024401 ], [ 317.364457831325183, -235.903915662650917 ], [ 322.753614457831247, -235.230271084337659 ], [ 314.669879518072207, -239.945783132530437 ], [ 301.196987951807102, -246.682228915662961 ], [ 289.745030120481829, -250.724096385542481 ], [ 282.334939759036047, -254.765963855422001 ], [ 276.945783132530039, -256.113253012048517 ], [ 272.903915662650491, -258.807831325301549 ], [ 266.841114457831225, -252.071385542168997 ], [ 268.188403614457741, -251.397740963855739 ], [ 271.556626506023974, -243.314006024096699 ], [ 272.230271084337232, -231.862048192771397 ], [ 274.251204819277007, -221.083734939759353 ], [ 276.945783132530039, -216.368222891566575 ], [ 276.945783132530039, -210.979066265060567 ], [ 275.598493975903523, -204.916265060241273 ], [ 276.272138554216781, -198.853463855422007 ], [ 278.293072289156555, -199.527108433735265 ], [ 280.987650602409531, -200.874397590361752 ], [ 282.334939759036047, -202.895331325301527 ], [ 285.029518072289079, -207.610843373494276 ], [ 287.724096385542055, -212.326355421687055 ], [ 287.724096385542055, -216.368222891566575 ], [ 290.418674698795087, -216.368222891566575 ], [ 299.176054216867385, -208.284487951807535 ], [ 301.870632530120361, -201.548042168675011 ], [ 303.891566265060135, -190.769728915662967 ], [ 306.586144578313167, -188.075150602409963 ], [ 311.975301204819175, -182.685993975903926 ], [ 314.669879518072207, -174.602259036144886 ], [ 320.732680722891473, -163.150301204819584 ], [ 318.038102409638441, -159.108433734940064 ], [ 311.975301204819175, -157.087500000000318 ], [ 309.280722891566143, -153.045632530120798 ], [ 324.774548192770965, -146.982831325301532 ], [ 342.289307228915561, -144.961897590361758 ], [ 355.762198795180666, -150.351054216867794 ], [ 367.214156626505883, -156.41385542168706 ], [ 374.624246987951665, -161.803012048193096 ] ] ] } },
{ "type": "Feature", "properties": { "id": 6, "zone": "Wet mountains", "code": null }, "geometry": { "type": "Polygon", "coordinates": [ [ [ 367.214156626505883, -60.082680722891887 ], [ 371.256024096385431, -57.388102409638876 ], [ 373.276957831325149, -58.735391566265385 ], [ 373.276957831325149, -60.756325301205138 ], [ 371.929668674698746, -64.798192771084658 ], [ 371.256024096385431, -67.492771084337676 ], [ 367.887801204819198, -72.20828313253044 ], [ 361.825, -72.881927710843698 ], [ 359.804066265060101, -75.576506024096702 ], [ 353.741265060240835, -76.923795180723218 ], [ 351.046686746987859, -80.965662650602724 ], [ 344.983885542168593, -91.743975903614782 ], [ 344.310240963855335, -96.459487951807546 ], [ 344.310240963855335, -102.522289156626826 ], [ 342.962951807228819, -110.606024096385866 ], [ 347.004819277108311, -111.953313253012368 ], [ 349.699397590361343, -116.668825301205132 ], [ 347.004819277108311, -119.36340361445815 ], [ 339.594728915662529, -113.974246987952128 ], [ 336.900150602409553, -109.932379518072608 ], [ 333.531927710843263, -106.564156626506346 ], [ 328.816415662650513, -103.869578313253328 ], [ 325.448192771084223, -99.154066265060564 ], [ 320.059036144578215, -96.459487951807546 ], [ 313.996234939758949, -95.112198795181044 ], [ 311.975301204819175, -91.743975903614782 ], [ 311.975301204819175, -88.37575301204852 ], [ 320.059036144578215, -78.27108433734972 ], [ 330.163704819277029, -68.840060240964178 ], [ 341.615662650602303, -64.124548192771414 ], [ 348.352108433734827, -60.756325301205138 ], [ 360.477710843373416, -60.082680722891887 ], [ 367.214156626505883, -60.082680722891887 ] ] ] } },
{ "type": "Feature", "properties": { "id": 7, "zone": "Northern dry mountains", "code": null }, "geometry": { "type": "Polygon", "coordinates": [ [ [ 403.590963855421592, -36.505120481928031 ], [ 405.611897590361309, -31.115963855422024 ], [ 405.611897590361309, -32.463253012048511 ], [ 405.611897590361309, -35.831475903614773 ], [ 406.959186746987825, -38.526054216867806 ], [ 404.938253012048108, -39.199698795181064 ], [ 402.243674698795076, -39.199698795181064 ], [ 397.528162650602326, -39.199698795181064 ], [ 392.812650602409576, -40.546987951807552 ], [ 388.770783132530028, -42.567921686747326 ], [ 383.381626506023963, -45.26250000000033 ], [ 379.339759036144528, -49.978012048193108 ], [ 375.971536144578181, -51.325301204819596 ], [ 373.276957831325149, -56.714457831325632 ], [ 367.887801204819198, -60.082680722891894 ], [ 359.804066265060101, -60.082680722891894 ], [ 353.067620481927634, -60.756325301205152 ], [ 347.678463855421569, -61.42996987951841 ], [ 344.310240963855335, -64.798192771084672 ], [ 334.205572289156521, -68.166415662650934 ], [ 328.142771084337255, -70.18734939759068 ], [ 318.711746987951699, -75.576506024096716 ], [ 314.669879518072207, -83.660240963855756 ], [ 312.648945783132433, -91.070331325301538 ], [ 307.933433734939683, -92.417620481928026 ], [ 306.586144578313167, -93.091265060241284 ], [ 303.891566265060135, -95.112198795181058 ], [ 299.849698795180643, -99.154066265060578 ], [ 298.502409638554127, -101.175000000000324 ], [ 293.113253012048119, -102.52228915662684 ], [ 291.092319277108345, -104.543222891566586 ], [ 290.418674698795087, -107.23780120481959 ], [ 291.765963855421603, -112.626957831325626 ], [ 290.418674698795087, -115.32153614457863 ], [ 285.703162650602337, -117.342469879518404 ], [ 282.334939759036047, -118.016114457831662 ], [ 278.966716867469756, -119.36340361445815 ], [ 275.598493975903523, -119.36340361445815 ], [ 274.251204819277007, -117.342469879518404 ], [ 273.577560240963749, -115.32153614457863 ], [ 272.230271084337232, -111.27966867469911 ], [ 271.556626506023974, -106.56415662650636 ], [ 272.903915662650491, -105.216867469879844 ], [ 283.008584337349305, -103.869578313253328 ], [ 285.029518072289079, -100.501355421687066 ], [ 285.703162650602337, -93.091265060241284 ], [ 282.334939759036047, -87.702108433735276 ], [ 287.050451807228796, -82.986596385542498 ], [ 291.765963855421603, -76.923795180723204 ], [ 296.481475903614353, -71.534638554217196 ], [ 296.481475903614353, -66.819126506024418 ], [ 297.155120481927611, -58.061746987952148 ], [ 293.113253012048119, -48.630722891566592 ], [ 287.724096385542055, -40.546987951807552 ], [ 291.765963855421603, -33.810542168675028 ], [ 301.196987951807102, -31.115963855422024 ], [ 306.586144578313167, -27.074096385542504 ], [ 314.669879518072207, -18.990361445783464 ], [ 325.448192771084223, -16.969427710843703 ], [ 340.942018072289045, -14.948493975903943 ], [ 359.130421686746899, -14.948493975903943 ], [ 372.603313253011947, -10.23298192771118 ], [ 384.728915662650479, -12.253915662650925 ], [ 390.118072289156544, -16.295783132530445 ], [ 398.201807228915527, -17.643072289156962 ], [ 404.264608433734793, -27.074096385542504 ], [ 403.590963855421592, -36.505120481928031 ] ] ] } }
]
}
